{"type":"FeatureCollection", "features": [
{"type":"Feature","geometry":{"type":"Polygon","coordinates":[[[4.8561,52.4167],[4.7392,52.4311],[4.7288,52.4007],[4.758,52.3935],[4.7564,52.3778],[4.7903,52.3417],[4.8197,52.3257],[4.8963,52.3224],[4.9124,52.3182],[4.9694,52.3558],[5.0172,52.3451],[4.9835,52.3645],[5.0683,52.4166],[5.03,52.4156],[5.0216,52.4212],[4.9863,52.4284],[4.9532,52.4218],[4.9478,52.4216],[4.9307,52.4116],[4.8707,52.4304],[4.8627,52.4299],[4.8599,52.4205],[4.8561,52.4167]]]},"properties":{"postcode2":"10"}},
{"type":"Feature","geometry":{"type":"MultiPolygon","coordinates":[[[[4.7288,52.4007],[4.7367,52.4296],[4.6918,52.3799],[4.7077,52.3827],[4.7102,52.3731],[4.7395,52.2964],[4.7398,52.2833],[4.7507,52.2745],[4.7566,52.2753],[4.7545,52.2764],[4.7582,52.2767],[4.7747,52.2819],[4.78,52.2859],[4.796,52.3006],[4.8242,52.2898],[4.7953,52.2609],[4.8549,52.2421],[4.9029,52.2532],[4.911,52.2527],[5.0215,52.3025],[5.0157,52.3254],[5.0152,52.3326],[5.022,52.3357],[5.0172,52.3451],[4.9694,52.3558],[4.9124,52.3182],[4.8963,52.3224],[4.8197,52.3257],[4.7903,52.3417],[4.7564,52.3778],[4.758,52.3935],[4.7288,52.4007]]],[[[4.9469,52.4689],[4.9435,52.4877],[4.9031,52.472],[4.8987,52.4245],[4.9307,52.4116],[4.9507,52.4236],[4.9469,52.4689]]],[[[5.0683,52.4166],[5.0494,52.4394],[5.0658,52.5262],[4.9716,52.4462],[4.9671,52.4406],[4.9731,52.4285],[4.9863,52.4284],[5.0216,52.4212],[5.03,52.4156],[5.0683,52.4166]]]]},"properties":{"postcode2":"11"}},
{"type":"Feature","geometry":{"type":"Polygon","coordinates":[[[5.3058,52.2773],[5.2285,52.3113],[5.2301,52.3029],[5.1959,52.2951],[5.1439,52.2743],[5.1046,52.2854],[5.1021,52.2799],[5.0699,52.2613],[5.0577,52.2353],[5.0425,52.2288],[5.0428,52.224],[5.0366,52.2021],[5.0216,52.2025],[5.0371,52.1981],[5.0325,52.1841],[5.1926,52.1778],[5.2658,52.2816],[5.3058,52.2773]]]},"properties":{"postcode2":"12"}},
{"type":"Feature","geometry":{"type":"MultiPolygon","coordinates":[[[[5.1126,52.3148],[5.0936,52.3388],[5.022,52.3357],[5.0152,52.3326],[5.0157,52.3254],[5.0215,52.3025],[4.911,52.2527],[4.9085,52.2527],[4.9176,52.2478],[4.961,52.258],[4.9804,52.2268],[5.0089,52.2318],[5.0239,52.2501],[5.0343,52.2514],[5.0464,52.2487],[5.046,52.2432],[5.0699,52.2613],[5.1021,52.2799],[5.0985,52.2916],[5.1061,52.2947],[5.0958,52.3038],[5.0965,52.3073],[5.1079,52.3035],[5.1194,52.3108],[5.1126,52.3148]]],[[[5.2587,52.4352],[5.1243,52.3805],[5.1401,52.3268],[5.1952,52.3365],[5.3172,52.3036],[5.3792,52.3141],[5.3012,52.382],[5.3393,52.4064],[5.3364,52.4054],[5.2587,52.4352]]]]},"properties":{"postcode2":"13"}},
{"type":"Feature","geometry":{"type":"MultiPolygon","coordinates":[[[[4.8242,52.2898],[4.796,52.3006],[4.78,52.2859],[4.7747,52.2819],[4.7582,52.2767],[4.7545,52.2764],[4.7566,52.2753],[4.7507,52.2745],[4.7398,52.2833],[4.7294,52.2887],[4.7207,52.2902],[4.7195,52.2831],[4.6771,52.2344],[4.6703,52.2308],[4.6767,52.2259],[4.6962,52.2321],[4.7242,52.2324],[4.7229,52.2204],[4.7881,52.2259],[4.8236,52.1932],[4.8373,52.1845],[4.8404,52.1857],[4.8289,52.197],[4.8175,52.204],[4.8277,52.2186],[4.8314,52.2301],[4.8388,52.2266],[4.8391,52.2314],[4.8523,52.242],[4.7953,52.2609],[4.8242,52.2898]]],[[[5.2285,52.3113],[5.1736,52.304],[5.1126,52.3148],[5.1194,52.3108],[5.1079,52.3035],[5.0965,52.3073],[5.0958,52.3038],[5.1061,52.2947],[5.0985,52.2916],[5.1046,52.2854],[5.1439,52.2743],[5.1959,52.2951],[5.2301,52.3029],[5.2285,52.3113]]],[[[4.9569,52.6022],[4.9374,52.6072],[4.9251,52.6076],[4.9012,52.6029],[4.8687,52.576],[4.7924,52.5569],[4.7571,52.562],[4.749,52.5385],[4.7623,52.5375],[4.8029,52.5308],[4.8618,52.4976],[4.8624,52.4685],[4.9031,52.472],[4.9435,52.4877],[4.9469,52.4689],[4.9507,52.4236],[4.9478,52.4216],[4.9532,52.4218],[4.9731,52.4285],[4.9671,52.4406],[4.9716,52.4462],[5.0658,52.5262],[5.0312,52.5675],[5.0197,52.6125],[4.9498,52.5953],[4.9569,52.6022]]]]},"properties":{"postcode2":"14"}},
{"type":"Feature","geometry":{"type":"Polygon","coordinates":[[[4.9031,52.472],[4.8624,52.4685],[4.8618,52.4976],[4.8029,52.5308],[4.7777,52.5337],[4.7825,52.5196],[4.7139,52.4927],[4.6748,52.4555],[4.7094,52.4369],[4.7183,52.434],[4.8561,52.4167],[4.8599,52.4205],[4.8627,52.4299],[4.8707,52.4304],[4.8987,52.4245],[4.9031,52.472]]]},"properties":{"postcode2":"15"}},
{"type":"Feature","geometry":{"type":"Polygon","coordinates":[[[5.2869,52.6899],[5.2827,52.7423],[5.1929,52.755],[5.1544,52.7385],[5.0932,52.7685],[5.082,52.7696],[5.0576,52.7578],[4.9712,52.7437],[4.9791,52.6798],[4.9172,52.6633],[4.9169,52.6418],[4.8846,52.644],[4.8701,52.6339],[4.8506,52.5969],[4.8766,52.6001],[4.8885,52.5986],[4.9012,52.6029],[4.9251,52.6076],[4.9374,52.6072],[4.9569,52.6022],[4.9498,52.5953],[5.0197,52.6125],[5.0457,52.6416],[5.1279,52.6199],[5.1985,52.6363],[5.2465,52.6855],[5.2869,52.6899]]]},"properties":{"postcode2":"16"}},
{"type":"Feature","geometry":{"type":"MultiPolygon","coordinates":[[[[5.0932,52.7685],[5.1135,52.8465],[5.039,52.9313],[5.1659,52.9999],[5.0542,52.9411],[4.9685,52.9303],[4.9351,52.9035],[4.8748,52.8883],[4.8067,52.9127],[4.7792,52.9545],[4.7172,52.9475],[4.709,52.8836],[4.6803,52.8102],[4.6458,52.7566],[4.651,52.7558],[4.6835,52.7335],[4.7303,52.6908],[4.8639,52.6354],[4.8846,52.644],[4.9169,52.6418],[4.9172,52.6633],[4.9791,52.6798],[4.9712,52.7437],[5.0576,52.7578],[5.082,52.7696],[5.0932,52.7685]]],[[[4.8787,53.157],[4.8409,53.1833],[4.7236,53.0677],[4.7135,52.9973],[4.7737,52.9963],[4.8472,53.034],[4.8972,53.0786],[4.9078,53.1354],[4.8787,53.157]]]]},"properties":{"postcode2":"17"}},
{"type":"Feature","geometry":{"type":"Polygon","coordinates":[[[4.6835,52.7335],[4.651,52.7558],[4.6458,52.7566],[4.6237,52.6397],[4.6781,52.6447],[4.6909,52.6402],[4.7098,52.6287],[4.708,52.6203],[4.674,52.5899],[4.6776,52.5856],[4.74,52.5789],[4.7637,52.6034],[4.7519,52.5823],[4.7458,52.5673],[4.7541,52.5625],[4.7874,52.5568],[4.7924,52.5569],[4.8687,52.576],[4.8885,52.5986],[4.8766,52.6001],[4.8506,52.5969],[4.8701,52.6339],[4.8639,52.6354],[4.7303,52.6908],[4.6835,52.7335]]]},"properties":{"postcode2":"18"}},
{"type":"Feature","geometry":{"type":"Polygon","coordinates":[[[4.6909,52.6402],[4.6781,52.6447],[4.6237,52.6397],[4.5866,52.4992],[4.5537,52.4608],[4.5851,52.4348],[4.6548,52.4515],[4.6461,52.4298],[4.722,52.4333],[4.71,52.4366],[4.6748,52.4555],[4.7139,52.4927],[4.7825,52.5196],[4.7777,52.5337],[4.7623,52.5375],[4.749,52.5385],[4.7571,52.562],[4.7516,52.5638],[4.7456,52.568],[4.7637,52.6034],[4.74,52.5789],[4.6776,52.5856],[4.674,52.5899],[4.708,52.6203],[4.7098,52.6287],[4.6909,52.6402]]]},"properties":{"postcode2":"19"}},
{"type":"Feature","geometry":{"type":"Polygon","coordinates":[[[4.6461,52.4298],[4.6548,52.4515],[4.5851,52.4348],[4.5548,52.4226],[4.494,52.3282],[4.514,52.3228],[4.5196,52.3253],[4.5389,52.3241],[4.532,52.3355],[4.5626,52.3693],[4.5825,52.3755],[4.6701,52.3516],[4.7078,52.3822],[4.6918,52.3799],[4.7367,52.4296],[4.7392,52.4311],[4.722,52.4333],[4.6461,52.4298]]]},"properties":{"postcode2":"20"}},
{"type":"Feature","geometry":{"type":"Polygon","coordinates":[[[4.7294,52.2887],[4.7395,52.2964],[4.7102,52.3731],[4.7078,52.3822],[4.6755,52.3759],[4.6701,52.3516],[4.5825,52.3755],[4.5626,52.3693],[4.532,52.3355],[4.5389,52.3241],[4.5196,52.3253],[4.514,52.3228],[4.5402,52.3158],[4.5393,52.3127],[4.535,52.3097],[4.5387,52.2818],[4.5053,52.2207],[4.48,52.202],[4.6326,52.2162],[4.6771,52.2344],[4.7195,52.2831],[4.7207,52.2902],[4.7294,52.2887]]]},"properties":{"postcode2":"21"}},
{"type":"Feature","geometry":{"type":"Polygon","coordinates":[[[4.535,52.3097],[4.5393,52.3127],[4.5402,52.3158],[4.494,52.3282],[4.3744,52.1869],[4.3026,52.1285],[4.3205,52.1221],[4.3733,52.0924],[4.355,52.0682],[4.2727,52.0359],[4.2511,52.0224],[4.2731,51.9992],[4.3259,52.0127],[4.3557,52.0296],[4.3445,52.054],[4.3956,52.0741],[4.4759,52.0812],[4.493,52.0878],[4.4904,52.0979],[4.45,52.1412],[4.4434,52.1457],[4.4484,52.1621],[4.4454,52.1678],[4.4458,52.1788],[4.4634,52.2001],[4.5053,52.2207],[4.5387,52.2818],[4.535,52.3097]]]},"properties":{"postcode2":"22"}},
{"type":"Feature","geometry":{"type":"Polygon","coordinates":[[[4.6422,52.2199],[4.6326,52.2162],[4.48,52.202],[4.4634,52.2001],[4.4458,52.1788],[4.4454,52.1678],[4.4484,52.1621],[4.4434,52.1457],[4.45,52.1412],[4.4904,52.0979],[4.4978,52.0878],[4.5101,52.09],[4.5181,52.0972],[4.5353,52.1204],[4.5499,52.1058],[4.5517,52.0791],[4.6316,52.0762],[4.6471,52.0864],[4.6382,52.1032],[4.6201,52.1577],[4.6422,52.2199]]]},"properties":{"postcode2":"23"}},
{"type":"Feature","geometry":{"type":"MultiPolygon","coordinates":[[[[4.4225,52.0572],[4.3956,52.0741],[4.3445,52.054],[4.3557,52.0296],[4.3735,52.0326],[4.3797,52.0267],[4.3874,52.0386],[4.4014,52.0534],[4.4221,52.0517],[4.4225,52.0572]]],[[[4.7229,52.2204],[4.7242,52.2324],[4.6962,52.2321],[4.6767,52.2259],[4.6703,52.2308],[4.6422,52.2199],[4.6201,52.1577],[4.6382,52.1032],[4.6411,52.0975],[4.6542,52.0991],[4.664,52.0995],[4.7088,52.0936],[4.7155,52.0812],[4.7178,52.0764],[4.7377,52.0633],[4.8298,52.0668],[4.8265,52.1422],[4.8319,52.1444],[4.8518,52.1533],[4.8566,52.156],[4.8538,52.1652],[4.8684,52.1692],[4.8555,52.179],[4.8441,52.1801],[4.8236,52.1932],[4.7881,52.2259],[4.7229,52.2204]]]]},"properties":{"postcode2":"24"}},
{"type":"Feature","geometry":{"type":"Polygon","coordinates":[[[4.3205,52.1221],[4.3026,52.1285],[4.1963,52.0557],[4.2351,52.0392],[4.2727,52.0359],[4.355,52.0682],[4.3733,52.0924],[4.3205,52.1221]]]},"properties":{"postcode2":"25"}},
{"type":"Feature","geometry":{"type":"Polygon","coordinates":[[[4.5479,51.9726],[4.5539,51.9775],[4.5654,52.0591],[4.5047,52.0319],[4.4707,52.0405],[4.4576,52.0386],[4.4014,52.0534],[4.3874,52.0386],[4.3797,52.0267],[4.3735,52.0326],[4.3259,52.0127],[4.2731,51.9992],[4.2511,52.0224],[4.2351,52.0392],[4.1963,52.0557],[4.1253,52.0016],[4.1506,51.9878],[4.1473,51.9814],[4.2338,51.9534],[4.2761,51.965],[4.3635,51.9609],[4.3898,51.9651],[4.47,51.9808],[4.5351,51.9681],[4.5398,51.9697],[4.5479,51.9726]]]},"properties":{"postcode2":"26"}},
{"type":"Feature","geometry":{"type":"Polygon","coordinates":[[[4.6411,52.0975],[4.6471,52.0864],[4.6316,52.0762],[4.5517,52.0791],[4.5499,52.1058],[4.5353,52.1204],[4.5181,52.0972],[4.5101,52.09],[4.4978,52.0878],[4.493,52.0878],[4.4759,52.0812],[4.4225,52.0572],[4.4221,52.0517],[4.4576,52.0386],[4.4707,52.0405],[4.5047,52.0319],[4.5654,52.0591],[4.5539,51.9775],[4.5607,51.9697],[4.5624,51.9719],[4.579,51.9758],[4.5944,51.9943],[4.614,51.9974],[4.6311,51.9876],[4.6533,52.0032],[4.713,52.0769],[4.7155,52.0812],[4.7088,52.0936],[4.664,52.0995],[4.6542,52.0991],[4.6411,52.0975]]]},"properties":{"postcode2":"27"}},
{"type":"Feature","geometry":{"type":"Polygon","coordinates":[[[4.7839,52.065],[4.7377,52.0633],[4.7178,52.0764],[4.713,52.0769],[4.6533,52.0032],[4.6335,51.9891],[4.6942,51.9309],[4.7487,51.9116],[4.8778,51.938],[4.8716,51.9537],[4.8178,51.9998],[4.8571,52.006],[4.825,52.0172],[4.7931,52.025],[4.7839,52.065]]]},"properties":{"postcode2":"28"}},
{"type":"Feature","geometry":{"type":"Polygon","coordinates":[[[4.6335,51.9891],[4.6311,51.9876],[4.614,51.9974],[4.6018,51.9721],[4.568,51.9581],[4.5421,51.9062],[4.5477,51.9072],[4.5763,51.903],[4.5615,51.8782],[4.5322,51.8688],[4.4799,51.8653],[4.4848,51.8632],[4.4891,51.8354],[4.4824,51.8347],[4.5021,51.8349],[4.5563,51.8278],[4.5582,51.8283],[4.5629,51.8282],[4.5593,51.8231],[4.5612,51.8179],[4.5667,51.8128],[4.5822,51.8175],[4.5864,51.8324],[4.6055,51.8484],[4.6489,51.8618],[4.7116,51.8403],[4.735,51.853],[4.7683,51.8561],[4.8105,51.8497],[4.8546,51.8678],[4.8986,51.8816],[4.9278,51.9009],[4.9321,51.9476],[4.8778,51.938],[4.7487,51.9116],[4.6942,51.9309],[4.6335,51.9891]]]},"properties":{"postcode2":"29"}},
{"type":"Feature","geometry":{"type":"Polygon","coordinates":[[[4.6018,51.9721],[4.5944,51.9943],[4.579,51.9758],[4.5624,51.9719],[4.5607,51.9697],[4.5479,51.9726],[4.5398,51.9697],[4.5351,51.9681],[4.47,51.9808],[4.3898,51.9651],[4.3793,51.9634],[4.4083,51.9323],[4.416,51.9142],[4.3964,51.897],[4.4466,51.866],[4.4799,51.8653],[4.5322,51.8688],[4.5615,51.8782],[4.5763,51.903],[4.5477,51.9072],[4.5421,51.9062],[4.568,51.9581],[4.6018,51.9721]]]},"properties":{"postcode2":"30"}},
{"type":"Feature","geometry":{"type":"Polygon","coordinates":[[[4.1473,51.9814],[4.1506,51.9878],[4.1253,52.0016],[4.097,51.985],[3.9841,51.9851],[3.9635,51.9542],[3.9852,51.9162],[4.0929,51.9325],[4.1033,51.9235],[4.1023,51.928],[4.1604,51.9264],[4.2355,51.8752],[4.3356,51.8643],[4.4142,51.8428],[4.4891,51.8354],[4.4848,51.8632],[4.4466,51.866],[4.3964,51.897],[4.416,51.9142],[4.4083,51.9323],[4.3793,51.9634],[4.3635,51.9609],[4.2761,51.965],[4.2338,51.9534],[4.1473,51.9814]]]},"properties":{"postcode2":"31"}},
{"type":"Feature","geometry":{"type":"MultiPolygon","coordinates":[[[[4.1604,51.9264],[4.1023,51.928],[4.1033,51.9235],[4.0929,51.9325],[4.0294,51.8864],[4.0002,51.8493],[3.8693,51.8196],[3.8425,51.7563],[3.8695,51.7812],[3.9494,51.8034],[3.9922,51.8018],[4.0507,51.7117],[4.1227,51.7064],[4.1555,51.6834],[4.1573,51.6825],[4.2718,51.6546],[4.3571,51.6712],[4.3945,51.6938],[4.4036,51.6987],[4.406,51.7219],[4.5304,51.7006],[4.6236,51.7214],[4.6271,51.7603],[4.6293,51.7605],[4.6297,51.7847],[4.6268,51.7848],[4.6212,51.8008],[4.5796,51.808],[4.5696,51.8113],[4.5627,51.8161],[4.5593,51.8231],[4.5629,51.8282],[4.5582,51.8283],[4.5563,51.8278],[4.5021,51.8349],[4.4824,51.8347],[4.4142,51.8428],[4.3356,51.8643],[4.2355,51.8752],[4.1604,51.9264]]],[[[4.0579,51.8376],[4.0634,51.8134],[4.1876,51.7755],[4.2628,51.7275],[4.3294,51.7026],[4.4042,51.7234],[4.2487,51.7659],[4.2116,51.8001],[4.1586,51.8218],[4.0579,51.8376]]]]},"properties":{"postcode2":"32"}},
{"type":"Feature","geometry":{"type":"Polygon","coordinates":[[[4.9188,51.8719],[4.9118,51.8882],[4.8986,51.8816],[4.8546,51.8678],[4.8105,51.8497],[4.7683,51.8561],[4.735,51.853],[4.7116,51.8403],[4.6489,51.8618],[4.6055,51.8484],[4.5864,51.8324],[4.5822,51.8175],[4.5667,51.8128],[4.5796,51.808],[4.6212,51.8008],[4.6268,51.7848],[4.6297,51.7847],[4.6293,51.7605],[4.6271,51.7603],[4.6236,51.7214],[4.6364,51.7174],[4.6439,51.7188],[4.6752,51.7242],[4.6816,51.7284],[4.7972,51.7998],[4.8361,51.7978],[4.927,51.8283],[4.9092,51.8427],[4.9237,51.8474],[4.9188,51.8719]]]},"properties":{"postcode2":"33"}},
{"type":"Feature","geometry":{"type":"Polygon","coordinates":[[[4.9093,52.1618],[4.8922,52.1617],[4.8375,52.1406],[4.8265,52.1422],[4.8298,52.0668],[4.7839,52.065],[4.7931,52.025],[4.825,52.0172],[4.8571,52.006],[4.8178,51.9998],[4.8716,51.9537],[4.8768,51.9409],[4.8855,51.9408],[4.9245,51.9536],[4.9274,51.9545],[4.9767,51.9669],[4.9789,51.966],[4.9839,51.9706],[4.9818,51.9719],[4.9942,51.9779],[5.0141,51.9755],[5.0126,51.9743],[5.0378,51.9727],[5.061,51.9918],[5.0754,52.0009],[5.0775,51.9974],[5.1254,52.0012],[5.1338,52.0542],[5.1206,52.0568],[5.1223,52.0563],[5.1113,52.0583],[5.0553,52.0297],[5.0381,52.0442],[5.0585,52.0792],[5.0269,52.1114],[5.0051,52.142],[4.944,52.1275],[4.9115,52.144],[4.9093,52.1618]]]},"properties":{"postcode2":"34"}},
{"type":"Feature","geometry":{"type":"Polygon","coordinates":[[[5.1011,52.1298],[5.0872,52.1357],[5.0227,52.1228],[5.0269,52.1114],[5.0585,52.0792],[5.0381,52.0442],[5.0553,52.0297],[5.1113,52.0583],[5.1223,52.0563],[5.1206,52.0568],[5.138,52.0536],[5.1443,52.0555],[5.1441,52.0527],[5.1578,52.0583],[5.1604,52.0778],[5.1669,52.0767],[5.1815,52.0762],[5.1952,52.0773],[5.1482,52.1198],[5.1071,52.1332],[5.1034,52.1298],[5.1011,52.1298]]]},"properties":{"postcode2":"35"}},
{"type":"Feature","geometry":{"type":"Polygon","coordinates":[[[4.9804,52.2268],[4.961,52.258],[4.9176,52.2478],[4.9085,52.2527],[4.9029,52.2532],[4.8549,52.2421],[4.8523,52.242],[4.8391,52.2314],[4.8388,52.2266],[4.8314,52.2301],[4.8277,52.2186],[4.8175,52.204],[4.8289,52.197],[4.8404,52.1857],[4.8373,52.1845],[4.8441,52.1801],[4.8555,52.179],[4.8684,52.1692],[4.8538,52.1652],[4.8566,52.156],[4.8518,52.1533],[4.8319,52.1444],[4.8375,52.1406],[4.8922,52.1617],[4.9093,52.1618],[4.9115,52.144],[4.944,52.1275],[5.0051,52.142],[5.0227,52.1228],[5.0872,52.1357],[5.1011,52.1298],[5.1034,52.1298],[5.1108,52.1366],[5.1153,52.1798],[5.0325,52.1841],[5.0371,52.1981],[5.0216,52.2025],[5.0366,52.2021],[5.0428,52.224],[5.0425,52.2288],[5.0577,52.2353],[5.046,52.2432],[5.0464,52.2487],[5.0343,52.2514],[5.0239,52.2501],[5.0089,52.2318],[4.9804,52.2268]]]},"properties":{"postcode2":"36"}},
{"type":"Feature","geometry":{"type":"MultiPolygon","coordinates":[[[[5.7884,52.1969],[5.7161,52.2158],[5.5689,52.1779],[5.5489,52.1753],[5.5308,52.1915],[5.4856,52.182],[5.4864,52.1154],[5.5104,52.1078],[5.5415,52.1037],[5.5503,52.1054],[5.5467,52.1114],[5.7219,52.1386],[5.7604,52.1535],[5.7875,52.159],[5.7957,52.1643],[5.8008,52.1721],[5.8027,52.1763],[5.7974,52.1974],[5.7884,52.1969]]],[[[5.3058,52.2773],[5.2658,52.2816],[5.1926,52.1778],[5.1153,52.1798],[5.1108,52.1366],[5.1071,52.1332],[5.1482,52.1198],[5.1952,52.0773],[5.1968,52.0769],[5.247,52.0585],[5.3143,52.1021],[5.321,52.1075],[5.3217,52.1079],[5.3246,52.1077],[5.3153,52.1137],[5.3364,52.1827],[5.3252,52.1854],[5.3235,52.1865],[5.3147,52.1916],[5.3306,52.2033],[5.3927,52.2055],[5.4036,52.2471],[5.3058,52.2773]]]]},"properties":{"postcode2":"37"}},
{"type":"Feature","geometry":{"type":"Polygon","coordinates":[[[5.533,52.3844],[5.4386,52.4426],[5.4238,52.4326],[5.3681,52.414],[5.3567,52.407],[5.3432,52.4081],[5.3393,52.4064],[5.3012,52.382],[5.3792,52.3141],[5.3172,52.3036],[5.4036,52.2471],[5.3927,52.2055],[5.3306,52.2033],[5.3147,52.1916],[5.3235,52.1865],[5.3252,52.1854],[5.3364,52.1827],[5.3153,52.1137],[5.3246,52.1077],[5.3217,52.1079],[5.3491,52.1026],[5.3611,52.1035],[5.421,52.0969],[5.4379,52.0997],[5.4864,52.1154],[5.4856,52.182],[5.5308,52.1915],[5.5489,52.1753],[5.5689,52.1779],[5.7161,52.2158],[5.7884,52.1969],[5.8138,52.1989],[5.8151,52.2226],[5.8791,52.2352],[5.8724,52.2488],[5.8751,52.2502],[5.8685,52.2707],[5.8458,52.2868],[5.8449,52.2916],[5.838,52.2897],[5.8244,52.2722],[5.7534,52.2697],[5.7507,52.3171],[5.6789,52.3788],[5.614,52.3707],[5.635,52.3956],[5.5805,52.4109],[5.533,52.3844]]]},"properties":{"postcode2":"38"}},
{"type":"Feature","geometry":{"type":"Polygon","coordinates":[[[5.4864,52.1154],[5.4379,52.0997],[5.421,52.0969],[5.3611,52.1035],[5.3491,52.1026],[5.321,52.1075],[5.3143,52.1021],[5.247,52.0585],[5.1968,52.0769],[5.1815,52.0762],[5.1669,52.0767],[5.1604,52.0778],[5.1578,52.0583],[5.1441,52.0527],[5.1443,52.0555],[5.138,52.0536],[5.1338,52.0542],[5.1254,52.0012],[5.1282,51.9978],[5.1469,51.9768],[5.1755,51.9691],[5.2423,51.9787],[5.3166,51.9552],[5.3234,51.9551],[5.3331,51.9572],[5.3483,51.9677],[5.3556,51.9704],[5.391,51.9707],[5.4182,51.9766],[5.4862,51.9838],[5.6059,51.9431],[5.6261,51.9741],[5.5579,52.0489],[5.5542,52.1002],[5.5503,52.1054],[5.5415,52.1037],[5.5104,52.1078],[5.4864,52.1154]]]},"properties":{"postcode2":"39"}},
{"type":"Feature","geometry":{"type":"Polygon","coordinates":[[[5.6059,51.9431],[5.4862,51.9838],[5.4182,51.9766],[5.391,51.9707],[5.3556,51.9704],[5.3483,51.9677],[5.3317,51.9568],[5.3714,51.8987],[5.3377,51.8927],[5.3163,51.8218],[5.3245,51.814],[5.3707,51.812],[5.37,51.819],[5.379,51.8371],[5.4152,51.8518],[5.4209,51.8635],[5.4304,51.8745],[5.4407,51.882],[5.4534,51.8874],[5.4722,51.8895],[5.4976,51.889],[5.5991,51.8991],[5.6543,51.9414],[5.666,51.9528],[5.6496,51.95],[5.6418,51.9377],[5.6191,51.9413],[5.6059,51.9431]]]},"properties":{"postcode2":"40"}},
{"type":"Feature","geometry":{"type":"Polygon","coordinates":[[[5.1282,51.9978],[5.0775,51.9974],[5.0754,52.0009],[5.061,51.9918],[5.0378,51.9727],[5.0126,51.9743],[5.0141,51.9755],[4.9942,51.9779],[4.9818,51.9719],[4.9839,51.9706],[4.9754,51.9605],[5.0451,51.9317],[5.0554,51.8755],[5.0948,51.8688],[5.0899,51.8266],[5.1009,51.8245],[5.2024,51.8041],[5.2702,51.8239],[5.3163,51.8218],[5.3377,51.8927],[5.3714,51.8987],[5.3317,51.9568],[5.3331,51.9572],[5.3166,51.9552],[5.2423,51.9787],[5.1755,51.9691],[5.1469,51.9768],[5.1282,51.9978]]]},"properties":{"postcode2":"41"}},
{"type":"Feature","geometry":{"type":"Polygon","coordinates":[[[4.9767,51.9669],[4.9274,51.9545],[4.9245,51.9536],[4.8855,51.9408],[4.8768,51.9409],[4.8778,51.938],[4.9321,51.9476],[4.9278,51.9009],[4.9118,51.8882],[4.9188,51.8719],[4.9237,51.8474],[4.9092,51.8427],[4.927,51.8283],[4.8361,51.7978],[4.7972,51.7998],[4.6816,51.7284],[4.6792,51.7268],[4.6986,51.722],[4.7802,51.764],[4.7854,51.7559],[4.8519,51.7559],[4.8731,51.72],[4.9515,51.723],[5.0202,51.7116],[5.0717,51.7204],[5.1183,51.7357],[5.1281,51.7376],[5.1376,51.7729],[5.067,51.7806],[5.016,51.8082],[5.0741,51.8258],[5.0899,51.8266],[5.0948,51.8688],[5.0554,51.8755],[5.0451,51.9317],[4.9754,51.9605],[4.9789,51.966],[4.9767,51.9669]]]},"properties":{"postcode2":"42"}},
{"type":"Feature","geometry":{"type":"MultiPolygon","coordinates":[[[[3.6384,51.5902],[3.5524,51.5896],[3.4383,51.5424],[3.4338,51.5265],[3.5691,51.4405],[3.64,51.4435],[3.6984,51.4724],[3.7026,51.4748],[3.7009,51.4829],[3.7319,51.505],[3.7469,51.5169],[3.7282,51.5245],[3.6978,51.5156],[3.6392,51.5884],[3.6384,51.5902]]],[[[3.7948,51.6027],[3.7956,51.6009],[3.7998,51.6054],[3.7948,51.6027]]],[[[3.8707,51.597],[3.9354,51.636],[3.9681,51.6143],[4.071,51.6325],[4.1089,51.6738],[4.1499,51.6784],[4.1521,51.6552],[4.1941,51.639],[4.1573,51.6825],[4.1555,51.6834],[4.1142,51.6793],[4.0917,51.6671],[4.0149,51.6867],[3.9713,51.7336],[3.9139,51.7313],[3.8425,51.7563],[3.71,51.7306],[3.6793,51.7071],[3.6895,51.6781],[3.7224,51.6632],[3.6831,51.6008],[3.7086,51.6312],[3.7232,51.656],[3.7246,51.6685],[3.8132,51.6973],[3.8768,51.6671],[3.8955,51.6333],[3.8707,51.597]]]]},"properties":{"postcode2":"43"}},
{"type":"Feature","geometry":{"type":"Polygon","coordinates":[[[3.8098,51.605],[3.7998,51.6054],[3.7956,51.6009],[3.7948,51.6027],[3.7486,51.5974],[3.7417,51.5944],[3.6831,51.6008],[3.6384,51.5902],[3.6392,51.5884],[3.7282,51.5245],[3.7469,51.5169],[3.7319,51.505],[3.7009,51.4829],[3.7169,51.4645],[3.7047,51.4503],[3.7006,51.4429],[3.8123,51.3856],[3.9006,51.395],[3.9212,51.4445],[3.9754,51.4624],[4.0793,51.4075],[4.1539,51.3946],[4.1987,51.4067],[4.2432,51.3748],[4.2774,51.376],[4.2759,51.425],[4.2176,51.4877],[4.2231,51.4387],[4.1331,51.4314],[4.093,51.4465],[4.0427,51.5026],[3.9717,51.5284],[3.9305,51.5391],[3.9253,51.5445],[3.8639,51.547],[3.8969,51.56],[3.8688,51.5956],[3.8707,51.597],[3.8098,51.605]]]},"properties":{"postcode2":"44"}},
{"type":"Feature","geometry":{"type":"Polygon","coordinates":[[[3.5244,51.4071],[3.3701,51.3725],[3.3853,51.3343],[3.3584,51.315],[3.3879,51.2733],[3.4323,51.2456],[3.5276,51.246],[3.5154,51.2872],[3.5908,51.3044],[3.7955,51.2561],[3.7911,51.214],[3.8864,51.2002],[3.9586,51.2158],[4.0209,51.2454],[4.0706,51.2507],[4.1661,51.2929],[4.2347,51.3481],[4.2065,51.3745],[4.1393,51.3612],[4.0495,51.367],[4.0191,51.4014],[3.9743,51.4067],[3.9547,51.3675],[3.8669,51.3364],[3.7225,51.3496],[3.6874,51.3713],[3.5848,51.3879],[3.5244,51.4071]]]},"properties":{"postcode2":"45"}},
{"type":"Feature","geometry":{"type":"Polygon","coordinates":[[[4.3962,51.6437],[4.3688,51.6571],[4.2587,51.6315],[4.1941,51.639],[4.0998,51.6433],[4.1541,51.6126],[4.1015,51.6102],[4.0746,51.6135],[4.0536,51.609],[4.0023,51.5947],[3.9896,51.5765],[4.0277,51.5564],[4.0731,51.5314],[4.1639,51.5228],[4.2138,51.492],[4.2176,51.4877],[4.2759,51.425],[4.2774,51.376],[4.3345,51.3776],[4.3845,51.3544],[4.4317,51.375],[4.3916,51.4082],[4.3911,51.4515],[4.3609,51.4605],[4.36,51.4645],[4.3582,51.4926],[4.3495,51.5035],[4.318,51.5512],[4.3673,51.5566],[4.3854,51.5936],[4.4306,51.6287],[4.3999,51.6388],[4.3962,51.6437]]]},"properties":{"postcode2":"46"}},
{"type":"Feature","geometry":{"type":"Polygon","coordinates":[[[4.6397,51.7122],[4.6364,51.7174],[4.6017,51.6969],[4.4902,51.683],[4.4036,51.6987],[4.3945,51.6938],[4.3962,51.6437],[4.3999,51.6388],[4.4306,51.6287],[4.3854,51.5936],[4.3673,51.5566],[4.318,51.5512],[4.3495,51.5035],[4.3582,51.4926],[4.36,51.4645],[4.3609,51.4605],[4.3911,51.4515],[4.4426,51.4687],[4.5561,51.4856],[4.6229,51.5073],[4.6333,51.5138],[4.6401,51.5434],[4.5922,51.5613],[4.6244,51.6243],[4.6994,51.6381],[4.7182,51.664],[4.7163,51.6752],[4.6397,51.7122]]]},"properties":{"postcode2":"47"}},
{"type":"Feature","geometry":{"type":"Polygon","coordinates":[[[4.7943,51.6417],[4.7388,51.6672],[4.7182,51.664],[4.6994,51.6381],[4.6244,51.6243],[4.5922,51.5613],[4.6401,51.5434],[4.6333,51.5138],[4.6229,51.5073],[4.5561,51.4856],[4.5299,51.4495],[4.5747,51.4328],[4.6697,51.4264],[4.7527,51.4998],[4.8619,51.4776],[4.8944,51.4826],[4.9085,51.4942],[4.9097,51.5016],[4.8662,51.5381],[4.8642,51.5791],[4.9116,51.6001],[4.9174,51.6087],[4.9065,51.6205],[4.8994,51.6218],[4.8944,51.6216],[4.8945,51.6007],[4.8873,51.6002],[4.7943,51.6417]]]},"properties":{"postcode2":"48"}},
{"type":"Feature","geometry":{"type":"Polygon","coordinates":[[[4.918,51.72],[4.8731,51.72],[4.8519,51.7559],[4.7854,51.7559],[4.7802,51.764],[4.6986,51.722],[4.6792,51.7268],[4.6752,51.7242],[4.6439,51.7188],[4.6397,51.7122],[4.7163,51.6752],[4.7388,51.6672],[4.7943,51.6417],[4.8873,51.6002],[4.8945,51.6007],[4.8944,51.6216],[4.8994,51.6218],[4.9011,51.6234],[4.9328,51.6506],[4.918,51.72]]]},"properties":{"postcode2":"49"}},
{"type":"Feature","geometry":{"type":"Polygon","coordinates":[[[5.1601,51.6395],[5.1274,51.64],[5.0937,51.6112],[4.984,51.6075],[4.9534,51.5505],[5.0224,51.5385],[5.0153,51.4763],[5.0786,51.4714],[5.1046,51.4313],[5.0712,51.3935],[5.1166,51.3611],[5.197,51.3795],[5.191,51.4302],[5.2288,51.4276],[5.3058,51.4703],[5.311,51.4717],[5.2518,51.5095],[5.2733,51.5528],[5.2689,51.5537],[5.2462,51.5795],[5.2554,51.5934],[5.1601,51.6395]]]},"properties":{"postcode2":"50"}},
{"type":"Feature","geometry":{"type":"Polygon","coordinates":[[[5.1183,51.7357],[5.0717,51.7204],[5.0202,51.7116],[4.918,51.72],[4.9328,51.6506],[4.9011,51.6234],[4.9065,51.6205],[4.9174,51.6087],[4.9116,51.6001],[4.8642,51.5791],[4.8662,51.5381],[4.9097,51.5016],[4.9085,51.4942],[4.8944,51.4826],[4.8619,51.4776],[4.8234,51.4486],[4.8282,51.4223],[4.929,51.3961],[5.0044,51.4446],[5.0153,51.4763],[5.0224,51.5385],[4.9534,51.5505],[4.984,51.6075],[5.0937,51.6112],[5.1274,51.64],[5.1545,51.6549],[5.1749,51.6692],[5.149,51.7207],[5.1529,51.7234],[5.1434,51.7298],[5.1307,51.7299],[5.1268,51.7316],[5.1305,51.7359],[5.127,51.7359],[5.1265,51.7373],[5.1183,51.7357]]]},"properties":{"postcode2":"51"}},
{"type":"Feature","geometry":{"type":"Polygon","coordinates":[[[5.4569,51.6876],[5.4527,51.6885],[5.4517,51.6868],[5.4396,51.6918],[5.4394,51.7004],[5.4203,51.7041],[5.4056,51.7383],[5.3535,51.7555],[5.2497,51.7336],[5.1688,51.7431],[5.1265,51.7373],[5.127,51.7359],[5.1305,51.7359],[5.1268,51.7316],[5.1307,51.7299],[5.1434,51.7298],[5.1529,51.7234],[5.149,51.7207],[5.1749,51.6692],[5.1545,51.6549],[5.1601,51.6395],[5.2554,51.5934],[5.2462,51.5795],[5.2689,51.5537],[5.299,51.5478],[5.3022,51.5472],[5.3969,51.5504],[5.4039,51.55],[5.398,51.5523],[5.381,51.6028],[5.3907,51.6117],[5.3962,51.6453],[5.445,51.6642],[5.4569,51.6876]]]},"properties":{"postcode2":"52"}},
{"type":"Feature","geometry":{"type":"Polygon","coordinates":[[[5.3163,51.8218],[5.2702,51.8239],[5.2024,51.8041],[5.1009,51.8245],[5.0741,51.8258],[5.016,51.8082],[5.067,51.7806],[5.1376,51.7729],[5.1281,51.7376],[5.1688,51.7431],[5.2497,51.7336],[5.3535,51.7555],[5.4056,51.7383],[5.4203,51.7041],[5.4394,51.7004],[5.4396,51.6918],[5.4517,51.6868],[5.4527,51.6885],[5.4569,51.6876],[5.4588,51.692],[5.5766,51.6804],[5.669,51.7221],[5.7523,51.7226],[5.7708,51.7229],[5.7693,51.7523],[5.7452,51.7591],[5.706,51.7763],[5.6178,51.8201],[5.5888,51.8297],[5.5409,51.8163],[5.4017,51.8209],[5.3585,51.796],[5.3245,51.814],[5.3163,51.8218]]]},"properties":{"postcode2":"53"}},
{"type":"Feature","geometry":{"type":"Polygon","coordinates":[[[5.8796,51.7499],[5.8645,51.7577],[5.8521,51.7593],[5.7797,51.7522],[5.7693,51.7523],[5.7708,51.7229],[5.7523,51.7226],[5.669,51.7221],[5.5766,51.6804],[5.4588,51.692],[5.4488,51.6696],[5.445,51.6642],[5.3962,51.6453],[5.3907,51.6117],[5.381,51.6028],[5.398,51.5523],[5.4045,51.5515],[5.4316,51.5333],[5.4871,51.5418],[5.525,51.5219],[5.543,51.54],[5.5843,51.5627],[5.6603,51.5517],[5.6977,51.5246],[5.7534,51.5356],[5.8095,51.5741],[5.8006,51.5786],[5.7867,51.5982],[5.8344,51.6336],[5.9182,51.6529],[5.8948,51.6885],[5.9055,51.6843],[5.9256,51.6895],[5.9378,51.6857],[5.9571,51.6857],[5.9614,51.6871],[5.9564,51.6996],[5.9554,51.7091],[5.9338,51.7161],[5.8854,51.7283],[5.8796,51.7499]]]},"properties":{"postcode2":"54"}},
{"type":"Feature","geometry":{"type":"Polygon","coordinates":[[[5.3201,51.4722],[5.3058,51.4703],[5.2288,51.4276],[5.191,51.4302],[5.197,51.3795],[5.1166,51.3611],[5.1344,51.3155],[5.2003,51.3227],[5.2422,51.3052],[5.226,51.2683],[5.4174,51.2623],[5.483,51.3002],[5.5158,51.2952],[5.6027,51.3311],[5.5886,51.3506],[5.6389,51.3892],[5.6396,51.3879],[5.6466,51.3893],[5.6617,51.4034],[5.6496,51.4048],[5.6465,51.4048],[5.6307,51.4061],[5.6333,51.4154],[5.6184,51.4155],[5.6111,51.4198],[5.5938,51.4173],[5.5243,51.3997],[5.4879,51.4054],[5.4307,51.4079],[5.3712,51.4389],[5.3623,51.4466],[5.3201,51.4722]]]},"properties":{"postcode2":"55"}},
{"type":"Feature","geometry":{"type":"Polygon","coordinates":[[[5.3022,51.5472],[5.299,51.5478],[5.2733,51.5528],[5.2518,51.5095],[5.311,51.4717],[5.3201,51.4722],[5.3623,51.4466],[5.3712,51.4389],[5.4307,51.4079],[5.4879,51.4054],[5.5243,51.3997],[5.5938,51.4173],[5.5869,51.424],[5.5776,51.4988],[5.5479,51.5381],[5.525,51.5219],[5.4871,51.5418],[5.4316,51.5333],[5.4045,51.5515],[5.4039,51.55],[5.3969,51.5504],[5.3022,51.5472]]]},"properties":{"postcode2":"56"}},
{"type":"Feature","geometry":{"type":"Polygon","coordinates":[[[5.8526,51.5041],[5.8382,51.5664],[5.8206,51.5686],[5.8095,51.5741],[5.7534,51.5356],[5.6977,51.5246],[5.6603,51.5517],[5.5843,51.5627],[5.543,51.54],[5.5479,51.5381],[5.5776,51.4988],[5.5869,51.424],[5.6111,51.4198],[5.6184,51.4155],[5.6333,51.4154],[5.6307,51.4061],[5.6465,51.4048],[5.6496,51.4048],[5.6617,51.4034],[5.6466,51.3893],[5.6396,51.3879],[5.6498,51.3782],[5.6721,51.3151],[5.8402,51.3469],[5.8521,51.3207],[5.9107,51.3077],[5.9012,51.3245],[5.8958,51.365],[5.9313,51.3848],[5.9285,51.4322],[5.9183,51.4522],[5.9119,51.4507],[5.9073,51.4536],[5.8717,51.4501],[5.8526,51.5041]]]},"properties":{"postcode2":"57"}},
{"type":"Feature","geometry":{"type":"Polygon","coordinates":[[[5.9055,51.6843],[5.8948,51.6885],[5.9182,51.6529],[5.8344,51.6336],[5.7867,51.5982],[5.8006,51.5786],[5.8206,51.5686],[5.8382,51.5664],[5.8526,51.5041],[5.8717,51.4501],[5.9073,51.4536],[5.912,51.4508],[5.9183,51.4522],[5.9164,51.4556],[6.0759,51.4928],[6.1162,51.4678],[6.1746,51.4773],[6.2134,51.5078],[6.157,51.5666],[6.0914,51.6058],[6.1094,51.6469],[6.0319,51.6762],[5.9646,51.6756],[5.9614,51.6871],[5.9571,51.6857],[5.9378,51.6857],[5.9256,51.6895],[5.9055,51.6843]]]},"properties":{"postcode2":"58"}},
{"type":"Feature","geometry":{"type":"Polygon","coordinates":[[[6.0727,51.2426],[6.1245,51.2748],[6.1689,51.333],[6.2264,51.3603],[6.2053,51.3995],[6.2234,51.4728],[6.2134,51.5078],[6.1746,51.4773],[6.1162,51.4678],[6.0759,51.4928],[5.9164,51.4556],[5.9285,51.4322],[5.9313,51.3848],[5.8958,51.365],[5.9012,51.3245],[5.9194,51.31],[6.0096,51.2658],[6.0199,51.2506],[6.0469,51.25],[6.0727,51.2426]]]},"properties":{"postcode2":"59"}},
{"type":"Feature","geometry":{"type":"Polygon","coordinates":[[[5.6498,51.3782],[5.644,51.3783],[5.6389,51.3892],[5.5886,51.3506],[5.6027,51.3311],[5.5158,51.2952],[5.5579,51.2625],[5.5604,51.2223],[5.6527,51.1977],[5.7456,51.1895],[5.861,51.1483],[5.9268,51.1138],[6.0008,51.1141],[6.0365,51.0965],[6.1388,51.1733],[6.0731,51.1828],[6.0727,51.2426],[6.0469,51.25],[6.0199,51.2506],[6.0096,51.2658],[5.9194,51.31],[5.9107,51.3077],[5.8521,51.3207],[5.8402,51.3469],[5.6721,51.3151],[5.6498,51.3782]]]},"properties":{"postcode2":"60"}},
{"type":"Feature","geometry":{"type":"Polygon","coordinates":[[[6.0365,51.0965],[6.0008,51.1141],[5.9268,51.1138],[5.861,51.1483],[5.8237,51.1288],[5.7932,51.0585],[5.758,51.0337],[5.7661,50.9977],[5.7201,50.9624],[5.7482,50.939],[5.7742,50.926],[5.7548,50.9006],[5.7747,50.9113],[5.7824,50.9134],[5.8003,50.9148],[5.8316,50.9172],[5.8903,50.9541],[5.8878,50.9613],[5.8953,50.9749],[5.9055,51.0022],[6.0095,51.0908],[6.0365,51.0965]]]},"properties":{"postcode2":"61"}},
{"type":"Feature","geometry":{"type":"Polygon","coordinates":[[[5.7482,50.939],[5.7189,50.9078],[5.6417,50.8642],[5.6562,50.8243],[5.6939,50.8115],[5.6987,50.7796],[5.7392,50.7571],[5.7774,50.783],[5.8088,50.7559],[5.9214,50.7514],[6.0279,50.7738],[5.9801,50.8057],[5.9548,50.8459],[5.9182,50.8316],[5.9087,50.8262],[5.9101,50.8224],[5.8951,50.8221],[5.7494,50.857],[5.801,50.9088],[5.8003,50.9148],[5.7824,50.9134],[5.7747,50.9113],[5.7548,50.9006],[5.7742,50.926],[5.7482,50.939]]]},"properties":{"postcode2":"62"}},
{"type":"Feature","geometry":{"type":"MultiPolygon","coordinates":[[[[6.0798,50.9058],[6.0182,50.9347],[6.0091,50.9222],[5.9994,50.9174],[6.0798,50.9058]]],[[[5.8903,50.9541],[5.8316,50.9172],[5.801,50.9088],[5.7494,50.857],[5.8951,50.8221],[5.9101,50.8224],[5.9087,50.8262],[5.9182,50.8316],[5.9548,50.8459],[5.9801,50.8057],[6.0177,50.8215],[6.017,50.8257],[6.003,50.832],[6.0017,50.8389],[5.9886,50.8417],[5.9856,50.8462],[5.9686,50.8608],[5.9172,50.9098],[5.9167,50.9374],[5.9026,50.9453],[5.8903,50.9541]]]]},"properties":{"postcode2":"63"}},
{"type":"Feature","geometry":{"type":"Polygon","coordinates":[[[6.0182,50.9347],[6.0265,50.9833],[5.9552,50.9884],[5.8953,50.9749],[5.8878,50.9613],[5.9026,50.9453],[5.9167,50.9374],[5.9172,50.9098],[5.9686,50.8608],[5.9856,50.8462],[5.9886,50.8417],[6.0017,50.8389],[6.003,50.832],[6.017,50.8257],[6.0177,50.8215],[6.0742,50.8465],[6.0798,50.9058],[5.9994,50.9174],[6.0091,50.9222],[6.0182,50.9347]]]},"properties":{"postcode2":"64"}},
{"type":"Feature","geometry":{"type":"Polygon","coordinates":[[[6.0319,51.6762],[6.0449,51.7169],[5.952,51.7489],[5.9905,51.7663],[5.945,51.8235],[6.0553,51.8524],[6.002,51.8803],[5.9811,51.8598],[5.935,51.8726],[5.8778,51.8544],[5.8242,51.8586],[5.8028,51.8645],[5.7742,51.8234],[5.8331,51.7839],[5.8215,51.7574],[5.8521,51.7593],[5.8645,51.7577],[5.8796,51.7499],[5.8854,51.7283],[5.9338,51.7161],[5.9554,51.7091],[5.9564,51.6996],[5.9646,51.6756],[6.0319,51.6762]]]},"properties":{"postcode2":"65"}},
{"type":"Feature","geometry":{"type":"Polygon","coordinates":[[[5.9771,51.9229],[5.9633,51.9177],[5.7659,51.9609],[5.7473,51.9714],[5.7308,51.968],[5.7236,51.9642],[5.6819,51.9592],[5.666,51.9528],[5.6543,51.9414],[5.5991,51.8991],[5.4976,51.889],[5.4639,51.889],[5.4469,51.8851],[5.4341,51.8776],[5.426,51.8701],[5.4202,51.8624],[5.4152,51.8518],[5.379,51.8371],[5.37,51.819],[5.3707,51.812],[5.3585,51.796],[5.4017,51.8209],[5.5409,51.8163],[5.5888,51.8297],[5.6178,51.8201],[5.706,51.7763],[5.7452,51.7591],[5.7693,51.7523],[5.7797,51.7522],[5.8215,51.7574],[5.8331,51.7839],[5.7742,51.8234],[5.8028,51.8645],[5.8242,51.8586],[5.8778,51.8544],[5.935,51.8726],[5.9811,51.8598],[6.002,51.8803],[6.0237,51.8939],[5.9771,51.9229]]]},"properties":{"postcode2":"66"}},
{"type":"Feature","geometry":{"type":"Polygon","coordinates":[[[5.7875,52.159],[5.7604,52.1535],[5.7219,52.1386],[5.5467,52.1114],[5.5542,52.1002],[5.5579,52.0489],[5.6261,51.9741],[5.6059,51.9431],[5.6191,51.9413],[5.6418,51.9377],[5.6496,51.95],[5.6819,51.9592],[5.7226,51.9641],[5.7217,51.9815],[5.7175,51.9836],[5.7244,52.0007],[5.7998,52.0257],[5.8063,52.0305],[5.8422,52.0708],[5.8555,52.0824],[5.8499,52.0857],[5.8261,52.1168],[5.8626,52.1352],[5.8687,52.147],[5.8455,52.1516],[5.8098,52.1514],[5.7875,52.159]]]},"properties":{"postcode2":"67"}},
{"type":"Feature","geometry":{"type":"Polygon","coordinates":[[[6.0085,52.0741],[5.9905,52.0792],[5.9516,52.0999],[5.8789,52.097],[5.8707,52.085],[5.8555,52.0824],[5.8422,52.0708],[5.8063,52.0305],[5.7998,52.0257],[5.7244,52.0007],[5.7175,51.9836],[5.7217,51.9815],[5.7226,51.9641],[5.7308,51.968],[5.7473,51.9714],[5.7659,51.9609],[5.9633,51.9177],[5.9771,51.9229],[5.9623,51.9358],[5.9603,51.9438],[5.9902,51.9744],[6.003,51.9823],[6.0142,51.9965],[5.9917,52.0129],[6.006,52.0621],[6.0085,52.0741]]]},"properties":{"postcode2":"68"}},
{"type":"Feature","geometry":{"type":"Polygon","coordinates":[[[6.1637,52.1462],[6.1577,52.1449],[6.096,52.1368],[6.0511,52.1242],[6.0203,52.091],[6.0146,52.0846],[6.0148,52.08],[6.0085,52.0741],[6.006,52.0621],[5.9917,52.0129],[6.0142,51.9965],[6.003,51.9823],[5.9902,51.9744],[5.9603,51.9438],[5.9623,51.9358],[6.0237,51.8939],[6.0995,51.8494],[6.1666,51.8407],[6.1257,51.8982],[6.1702,51.9163],[6.1933,51.9409],[6.1447,51.9805],[6.2352,51.9823],[6.2447,51.9799],[6.2431,51.9777],[6.2573,51.9825],[6.2774,52.0059],[6.234,52.0299],[6.2322,52.0309],[6.2271,52.0306],[6.1962,52.0364],[6.159,52.0374],[6.1405,52.0361],[6.1339,52.0566],[6.1402,52.0618],[6.1898,52.0913],[6.2105,52.0925],[6.1862,52.1245],[6.1836,52.1342],[6.179,52.1385],[6.1637,52.1462]]]},"properties":{"postcode2":"69"}},
{"type":"Feature","geometry":{"type":"Polygon","coordinates":[[[6.4327,52.0406],[6.4272,52.0432],[6.2694,52.0247],[6.2774,52.0059],[6.2573,51.9825],[6.2431,51.9777],[6.2447,51.9799],[6.2352,51.9823],[6.1447,51.9805],[6.1933,51.9409],[6.1702,51.9163],[6.2151,51.8676],[6.299,51.8678],[6.4018,51.8273],[6.4123,51.8711],[6.4644,51.8553],[6.5146,51.8731],[6.5098,51.909],[6.4761,51.902],[6.4871,51.9141],[6.4971,51.9296],[6.5328,51.9624],[6.4669,51.9786],[6.4601,51.9952],[6.4327,52.0406]]]},"properties":{"postcode2":"70"}},
{"type":"Feature","geometry":{"type":"Polygon","coordinates":[[[6.5146,51.8731],[6.6842,51.9176],[6.722,51.8961],[6.8285,51.9641],[6.8266,51.9935],[6.753,52.0284],[6.6879,52.0399],[6.6947,52.0698],[6.7511,52.0855],[6.7163,52.1183],[6.663,52.13],[6.6739,52.1588],[6.6734,52.1632],[6.6063,52.1731],[6.5553,52.1773],[6.5415,52.1458],[6.5858,52.0913],[6.511,52.0816],[6.5252,52.0427],[6.4809,51.9879],[6.4669,51.9786],[6.5328,51.9624],[6.4971,51.9296],[6.4871,51.9141],[6.4761,51.902],[6.5098,51.909],[6.5146,51.8731]]]},"properties":{"postcode2":"71"}},
{"type":"Feature","geometry":{"type":"Polygon","coordinates":[[[6.5553,52.1773],[6.4703,52.1994],[6.4463,52.2128],[6.4164,52.2422],[6.297,52.229],[6.271,52.2279],[6.1825,52.2338],[6.1663,52.231],[6.1893,52.2173],[6.1909,52.2096],[6.1837,52.2042],[6.173,52.2013],[6.1695,52.1891],[6.1811,52.1814],[6.1938,52.1762],[6.1852,52.1626],[6.1594,52.1577],[6.1577,52.1449],[6.1637,52.1462],[6.179,52.1385],[6.1836,52.1342],[6.1862,52.1245],[6.2105,52.0925],[6.1898,52.0913],[6.1402,52.0618],[6.1339,52.0566],[6.1405,52.0361],[6.159,52.0374],[6.1962,52.0364],[6.2271,52.0306],[6.2322,52.0309],[6.234,52.0299],[6.2694,52.0247],[6.4272,52.0432],[6.4327,52.0406],[6.4601,51.9952],[6.4809,51.9879],[6.5252,52.0427],[6.511,52.0816],[6.5858,52.0913],[6.5415,52.1458],[6.5553,52.1773]]]},"properties":{"postcode2":"72"}},
{"type":"Feature","geometry":{"type":"Polygon","coordinates":[[[6.1013,52.3012],[6.0909,52.3],[6.0433,52.2787],[5.893,52.2674],[5.8814,52.2545],[5.8751,52.2502],[5.8724,52.2488],[5.8791,52.2352],[5.8151,52.2226],[5.8138,52.1989],[5.7974,52.1974],[5.8027,52.1763],[5.8008,52.1721],[5.7957,52.1643],[5.7875,52.159],[5.8098,52.1514],[5.8455,52.1516],[5.8687,52.147],[5.8626,52.1352],[5.8261,52.1168],[5.8499,52.0857],[5.8707,52.085],[5.8789,52.097],[5.9516,52.0999],[5.9905,52.0792],[6.0148,52.08],[6.0146,52.0846],[6.0203,52.091],[6.0511,52.1242],[6.096,52.1368],[6.1594,52.1577],[6.1852,52.1626],[6.1938,52.1762],[6.1811,52.1814],[6.1695,52.1891],[6.173,52.2013],[6.1851,52.2048],[6.1907,52.2091],[6.1899,52.2165],[6.1663,52.231],[6.1684,52.2273],[6.1625,52.2279],[6.1477,52.2277],[6.1435,52.2389],[6.1013,52.3012]]]},"properties":{"postcode2":"73"}},
{"type":"Feature","geometry":{"type":"Polygon","coordinates":[[[6.4485,52.4603],[6.4444,52.4547],[6.3897,52.3825],[6.3335,52.3514],[6.356,52.3182],[6.2672,52.3008],[6.2065,52.3211],[6.1126,52.2982],[6.1056,52.3143],[6.1014,52.3054],[6.1013,52.3012],[6.1435,52.2389],[6.1477,52.2277],[6.1625,52.2279],[6.1684,52.2273],[6.1663,52.231],[6.1825,52.2338],[6.271,52.2279],[6.297,52.229],[6.4164,52.2422],[6.4463,52.2128],[6.4703,52.1994],[6.5553,52.1773],[6.6063,52.1731],[6.6734,52.1632],[6.6739,52.1588],[6.663,52.13],[6.7163,52.1183],[6.8555,52.1205],[6.8898,52.1612],[6.8056,52.1666],[6.7124,52.2063],[6.7494,52.2691],[6.7386,52.2862],[6.7114,52.3041],[6.6575,52.2949],[6.6388,52.2938],[6.6272,52.2922],[6.6055,52.3345],[6.5875,52.3282],[6.5397,52.3158],[6.5321,52.3177],[6.5374,52.346],[6.4984,52.4385],[6.4674,52.4456],[6.4485,52.4603]]]},"properties":{"postcode2":"74"}},
{"type":"Feature","geometry":{"type":"Polygon","coordinates":[[[7.0281,52.4136],[6.8569,52.3592],[6.7834,52.3601],[6.7595,52.3319],[6.7768,52.2927],[6.7529,52.2872],[6.7494,52.2691],[6.7124,52.2063],[6.8056,52.1666],[6.8898,52.1612],[6.9512,52.1811],[6.9811,52.2207],[7.0613,52.2347],[7.0265,52.292],[7.0721,52.3519],[7.0587,52.3994],[7.0281,52.4136]]]},"properties":{"postcode2":"75"}},
{"type":"Feature","geometry":{"type":"Polygon","coordinates":[[[7.0281,52.4136],[6.9876,52.4698],[6.9417,52.4354],[6.8543,52.4597],[6.7746,52.4596],[6.6976,52.4863],[6.7053,52.521],[6.6581,52.5488],[6.6164,52.56],[6.4925,52.4793],[6.4784,52.4776],[6.4507,52.4681],[6.4507,52.4669],[6.4485,52.4603],[6.4674,52.4456],[6.4984,52.4385],[6.5374,52.346],[6.5321,52.3177],[6.5397,52.3158],[6.5875,52.3282],[6.6055,52.3345],[6.6272,52.2922],[6.6388,52.2938],[6.6575,52.2949],[6.7114,52.3041],[6.7386,52.2862],[6.7529,52.2872],[6.7768,52.2927],[6.7595,52.3319],[6.7834,52.3601],[6.8569,52.3592],[7.0281,52.4136]]]},"properties":{"postcode2":"76"}},
{"type":"Feature","geometry":{"type":"Polygon","coordinates":[[[6.7797,52.7349],[6.7192,52.7351],[6.7114,52.7085],[6.6683,52.699],[6.6469,52.697],[6.6324,52.6867],[6.6145,52.674],[6.5139,52.6463],[6.4535,52.614],[6.4062,52.6204],[6.3278,52.6587],[6.3142,52.6267],[6.2564,52.6281],[6.2415,52.6139],[6.2238,52.5875],[6.2055,52.5753],[6.183,52.5193],[6.2024,52.4687],[6.3098,52.4518],[6.3983,52.5077],[6.4397,52.4791],[6.4543,52.4745],[6.4784,52.4776],[6.4925,52.4793],[6.6164,52.56],[6.6581,52.5488],[6.7163,52.5485],[6.742,52.6453],[6.8972,52.6514],[7.0417,52.6327],[7.056,52.6554],[7.0116,52.6788],[6.9502,52.6762],[6.8896,52.6941],[6.7912,52.7043],[6.7797,52.7349]]]},"properties":{"postcode2":"77"}},
{"type":"Feature","geometry":{"type":"Polygon","coordinates":[[[7.0216,52.9193],[7.0096,52.9301],[6.9995,52.9257],[6.8989,52.8669],[6.8755,52.914],[6.8328,52.8814],[6.8268,52.8813],[6.7609,52.8751],[6.7495,52.8931],[6.7383,52.8878],[6.7397,52.8846],[6.7347,52.884],[6.7363,52.8787],[6.694,52.8145],[6.6948,52.8088],[6.6609,52.8012],[6.6319,52.7628],[6.6479,52.7119],[6.6469,52.697],[6.6683,52.699],[6.7114,52.7085],[6.7192,52.7351],[6.7797,52.7349],[6.7912,52.7043],[6.8896,52.6941],[6.9502,52.6762],[7.0116,52.6788],[7.056,52.6554],[7.0716,52.8104],[7.0927,52.8382],[7.0403,52.8728],[7.0379,52.9085],[7.0216,52.9193]]]},"properties":{"postcode2":"78"}},
{"type":"Feature","geometry":{"type":"Polygon","coordinates":[[[6.2798,52.8963],[6.253,52.8786],[6.2259,52.8505],[6.2703,52.8369],[6.1565,52.7627],[6.0823,52.7032],[6.0158,52.6907],[6.0332,52.678],[6.0823,52.6852],[6.1008,52.6614],[6.1196,52.6679],[6.1066,52.6568],[6.094,52.6471],[6.0974,52.6362],[6.104,52.626],[6.107,52.6148],[6.1062,52.607],[6.1205,52.5971],[6.13,52.5834],[6.2238,52.5875],[6.2415,52.6139],[6.2564,52.6281],[6.3142,52.6267],[6.3278,52.6587],[6.4062,52.6204],[6.4535,52.614],[6.5139,52.6463],[6.6145,52.674],[6.6324,52.6867],[6.6479,52.7119],[6.6319,52.7628],[6.639,52.7826],[6.6319,52.7878],[6.6207,52.7887],[6.5485,52.7713],[6.4918,52.7931],[6.4469,52.809],[6.4578,52.8252],[6.4634,52.8282],[6.4612,52.8304],[6.4699,52.8373],[6.42,52.8823],[6.3691,52.8849],[6.3632,52.8874],[6.3495,52.8785],[6.2798,52.8963]]]},"properties":{"postcode2":"79"}},
{"type":"Feature","geometry":{"type":"Polygon","coordinates":[[[6.1008,52.6614],[6.0823,52.6852],[6.0332,52.678],[6.0366,52.6759],[6.0382,52.6495],[6.0766,52.6217],[6.0632,52.5673],[6.0036,52.5504],[6.0187,52.5259],[6.0171,52.5153],[6.0279,52.5096],[6.0124,52.5059],[5.9653,52.4764],[5.9256,52.4741],[5.8873,52.5169],[5.8658,52.5187],[5.8111,52.4357],[5.74,52.3977],[5.6789,52.3788],[5.7507,52.3171],[5.7534,52.2697],[5.8244,52.2722],[5.838,52.2897],[5.8449,52.2916],[5.8444,52.2941],[5.8755,52.3293],[5.8754,52.3752],[5.9893,52.4118],[6.0017,52.4196],[6.0132,52.4242],[6.0147,52.4442],[6.0194,52.4451],[6.0928,52.4548],[6.2074,52.4531],[6.2167,52.4601],[6.2155,52.461],[6.2178,52.4628],[6.216,52.4644],[6.2024,52.4687],[6.183,52.5193],[6.2055,52.5753],[6.13,52.5834],[6.1205,52.5971],[6.1062,52.607],[6.107,52.6148],[6.104,52.626],[6.0974,52.6362],[6.094,52.6471],[6.1066,52.6568],[6.1196,52.6679],[6.1008,52.6614]]]},"properties":{"postcode2":"80"}},
{"type":"Feature","geometry":{"type":"Polygon","coordinates":[[[6.4507,52.4681],[6.4543,52.4745],[6.4397,52.4791],[6.3983,52.5077],[6.3098,52.4518],[6.216,52.4644],[6.2178,52.4628],[6.2155,52.461],[6.2167,52.4601],[6.2074,52.4531],[6.0928,52.4548],[6.0194,52.4451],[6.0147,52.4442],[6.0132,52.4242],[6.0017,52.4196],[5.9893,52.4118],[5.8754,52.3752],[5.8755,52.3293],[5.8444,52.2941],[5.8458,52.2868],[5.8685,52.2707],[5.8751,52.2502],[5.8814,52.2545],[5.893,52.2674],[6.0433,52.2787],[6.0909,52.3],[6.1014,52.3054],[6.1056,52.3143],[6.1126,52.2982],[6.2065,52.3211],[6.2672,52.3008],[6.356,52.3182],[6.3335,52.3514],[6.3897,52.3825],[6.4444,52.4547],[6.4507,52.4669],[6.4507,52.4681]]]},"properties":{"postcode2":"81"}},
{"type":"Feature","geometry":{"type":"Polygon","coordinates":[[[6.0766,52.6217],[6.0239,52.6419],[5.9865,52.6232],[5.8406,52.6104],[5.809,52.5789],[5.6548,52.5973],[5.5587,52.5923],[5.4974,52.5544],[5.3995,52.6494],[5.3612,52.6744],[5.3536,52.6777],[5.2869,52.6899],[5.3603,52.6742],[5.399,52.6488],[5.4555,52.5936],[5.4674,52.5693],[5.4272,52.538],[5.4346,52.5112],[5.2587,52.4352],[5.3364,52.4054],[5.3432,52.4081],[5.3567,52.407],[5.3681,52.414],[5.4238,52.4326],[5.4387,52.4427],[5.533,52.3844],[5.5805,52.4109],[5.635,52.3956],[5.614,52.3707],[5.6615,52.3979],[5.7487,52.4146],[5.8047,52.4459],[5.8658,52.5187],[5.8873,52.5169],[5.9256,52.4741],[5.9653,52.4764],[6.0124,52.5059],[6.0279,52.5096],[6.0171,52.5153],[6.0187,52.5259],[6.0036,52.5504],[6.0632,52.5673],[6.0766,52.6217]]]},"properties":{"postcode2":"82"}},
{"type":"Feature","geometry":{"type":"Polygon","coordinates":[[[6.2136,52.9258],[6.2025,52.9415],[6.2006,52.943],[6.1393,52.924],[6.0996,52.908],[6.0821,52.8994],[6.0659,52.8775],[6.0437,52.8671],[5.9302,52.835],[5.8979,52.8078],[5.8656,52.8047],[5.8242,52.8133],[5.8197,52.8173],[5.7287,52.8334],[5.6634,52.8301],[5.5966,52.7661],[5.5915,52.661],[5.6633,52.613],[5.8396,52.6133],[6.0382,52.6495],[6.0366,52.6759],[6.0158,52.6907],[6.0823,52.7032],[6.1565,52.7627],[6.2703,52.8369],[6.2259,52.8505],[6.253,52.8786],[6.2798,52.8963],[6.2136,52.9258]]]},"properties":{"postcode2":"83"}},
{"type":"Feature","geometry":{"type":"Polygon","coordinates":[[[6.3321,53.0753],[6.2814,53.0642],[6.2805,53.0582],[6.2231,53.0393],[6.2058,53.038],[6.1713,53.0199],[6.1351,53.0583],[6.0674,53.0386],[5.9576,53.0535],[5.9473,53.0625],[5.9267,53.0783],[5.9221,53.0946],[5.9152,53.1004],[5.8992,53.0985],[5.8986,53.0965],[5.8831,53.089],[5.8207,53.0765],[5.7698,53.0458],[5.7598,53.0467],[5.7792,53.0273],[5.8265,53.0126],[5.8568,52.9678],[5.8185,52.9349],[5.877,52.8868],[5.8277,52.8276],[5.8242,52.8133],[5.8656,52.8047],[5.8979,52.8078],[5.9302,52.835],[6.0437,52.8671],[6.0659,52.8775],[6.0821,52.8994],[6.0996,52.908],[6.1393,52.924],[6.2006,52.943],[6.2025,52.9415],[6.2136,52.9258],[6.2798,52.8963],[6.3495,52.8785],[6.3606,52.8852],[6.352,52.8913],[6.3666,52.9029],[6.3436,52.9106],[6.3934,52.9328],[6.4276,52.9718],[6.3625,53.034],[6.3678,53.0674],[6.3321,53.0753]]]},"properties":{"postcode2":"84"}},
{"type":"Feature","geometry":{"type":"Polygon","coordinates":[[[5.7792,53.0273],[5.7598,53.0467],[5.7554,53.0468],[5.7367,53.0302],[5.7422,53.0054],[5.7061,52.9843],[5.6416,52.9656],[5.6292,52.9608],[5.6262,52.9588],[5.6065,52.9569],[5.569,52.9455],[5.5648,52.9475],[5.5112,52.9266],[5.4772,52.9027],[5.4163,52.8875],[5.4221,52.8758],[5.44,52.8534],[5.5449,52.8331],[5.6413,52.8603],[5.7287,52.8334],[5.8197,52.8173],[5.8277,52.8276],[5.877,52.8868],[5.8185,52.9349],[5.8568,52.9678],[5.8265,53.0126],[5.7792,53.0273]]]},"properties":{"postcode2":"85"}},
{"type":"Feature","geometry":{"type":"Polygon","coordinates":[[[5.7554,53.0468],[5.7668,53.0505],[5.753,53.0523],[5.7197,53.0722],[5.7348,53.0815],[5.7389,53.088],[5.7361,53.0933],[5.6954,53.123],[5.6956,53.1268],[5.686,53.1299],[5.6849,53.1283],[5.68,53.1286],[5.658,53.1113],[5.6579,53.0691],[5.6516,53.0674],[5.6497,53.0695],[5.6354,53.0688],[5.6216,53.0282],[5.6082,53.024],[5.5649,53.035],[5.5034,53.0173],[5.4923,52.9707],[5.5436,52.957],[5.569,52.9455],[5.6065,52.9569],[5.6262,52.9588],[5.6292,52.9608],[5.6416,52.9656],[5.7061,52.9843],[5.7422,53.0054],[5.7367,53.0302],[5.7554,53.0468]]]},"properties":{"postcode2":"86"}},
{"type":"Feature","geometry":{"type":"Polygon","coordinates":[[[5.5473,53.1374],[5.5449,53.1006],[5.4579,53.1294],[5.4067,53.1282],[5.3485,53.0777],[5.2932,53.0666],[5.1659,52.9999],[5.2971,53.0672],[5.3439,53.0737],[5.3746,53.091],[5.4081,53.0203],[5.4068,52.9101],[5.3521,52.8864],[5.3981,52.8571],[5.44,52.8534],[5.4221,52.8758],[5.4163,52.8875],[5.4772,52.9027],[5.5112,52.9266],[5.5648,52.9475],[5.5436,52.957],[5.4923,52.9707],[5.5034,53.0173],[5.5649,53.035],[5.6082,53.024],[5.6216,53.0282],[5.6354,53.0688],[5.6497,53.0695],[5.6516,53.0674],[5.6579,53.0691],[5.658,53.1113],[5.6338,53.1078],[5.5753,53.1343],[5.5626,53.1302],[5.5543,53.133],[5.5473,53.1374]]]},"properties":{"postcode2":"87"}},
{"type":"Feature","geometry":{"type":"MultiPolygon","coordinates":[[[[5.5403,53.2611],[5.5364,53.2641],[5.4488,53.2203],[5.422,53.185],[5.4067,53.1282],[5.4579,53.1294],[5.5449,53.1006],[5.5473,53.1374],[5.5543,53.133],[5.5626,53.1302],[5.5753,53.1343],[5.6338,53.1078],[5.68,53.1286],[5.6849,53.1283],[5.6884,53.1348],[5.6856,53.1653],[5.5403,53.2611]]],[[[5.0966,53.2981],[5.0362,53.302],[4.8536,53.222],[4.9194,53.2162],[4.972,53.2648],[5.0966,53.2981]]],[[[5.5429,53.4393],[5.4946,53.4442],[5.2014,53.3946],[5.2213,53.3651],[5.2935,53.3704],[5.3839,53.402],[5.4587,53.4046],[5.5429,53.4393]]]]},"properties":{"postcode2":"88"}},
{"type":"Feature","geometry":{"type":"Polygon","coordinates":[[[5.8799,53.2333],[5.8526,53.2305],[5.8263,53.2226],[5.8231,53.2174],[5.7751,53.2264],[5.7439,53.2411],[5.7298,53.2353],[5.7439,53.2114],[5.7359,53.2067],[5.7547,53.1742],[5.7782,53.1606],[5.7885,53.1583],[5.8419,53.1696],[5.8493,53.1705],[5.8619,53.1715],[5.8536,53.1891],[5.8979,53.2087],[5.8807,53.225],[5.8799,53.2333]]]},"properties":{"postcode2":"89"}},
{"type":"Feature","geometry":{"type":"Polygon","coordinates":[[[5.7851,53.3384],[5.7563,53.3529],[5.587,53.3005],[5.5364,53.2641],[5.5403,53.2611],[5.6856,53.1653],[5.6884,53.1348],[5.686,53.1299],[5.6956,53.1268],[5.6954,53.123],[5.7361,53.0933],[5.7389,53.088],[5.7348,53.0815],[5.7197,53.0722],[5.753,53.0523],[5.7668,53.0505],[5.7698,53.0458],[5.8207,53.0765],[5.8831,53.089],[5.886,53.0944],[5.9279,53.1089],[5.919,53.1492],[5.9327,53.164],[5.9243,53.1684],[5.8493,53.1705],[5.8419,53.1696],[5.8075,53.1616],[5.7862,53.1584],[5.7772,53.1611],[5.7547,53.1742],[5.7359,53.2067],[5.7439,53.2114],[5.7298,53.2353],[5.7439,53.2411],[5.7751,53.2264],[5.8231,53.2174],[5.8263,53.2226],[5.8526,53.2305],[5.901,53.2349],[5.9422,53.2607],[5.9476,53.2624],[5.9441,53.2692],[5.9374,53.2673],[5.9288,53.2718],[5.9224,53.2804],[5.8872,53.2737],[5.8411,53.2888],[5.8313,53.3205],[5.7851,53.3384]]]},"properties":{"postcode2":"90"}},
{"type":"Feature","geometry":{"type":"MultiPolygon","coordinates":[[[[6.191,53.4107],[6.0156,53.4029],[5.8595,53.3837],[5.7851,53.3384],[5.8313,53.3205],[5.8411,53.2888],[5.8872,53.2737],[5.9224,53.2804],[5.9288,53.2718],[5.9374,53.2673],[5.9441,53.2692],[5.9476,53.2624],[5.9542,53.2646],[5.9708,53.2646],[6.0098,53.2557],[6.0213,53.2609],[6.075,53.3176],[6.1066,53.319],[6.1225,53.3148],[6.1306,53.3035],[6.1519,53.3082],[6.1782,53.3205],[6.1741,53.3341],[6.1782,53.3403],[6.1676,53.3487],[6.1642,53.3777],[6.1617,53.4081],[6.191,53.4107]]],[[[5.7484,53.4606],[5.6516,53.4696],[5.6157,53.4535],[5.6804,53.4247],[5.7484,53.4606]]],[[[6.3785,53.5073],[6.3669,53.5174],[6.1503,53.4971],[6.1606,53.4719],[6.2522,53.478],[6.3785,53.5073]]]]},"properties":{"postcode2":"91"}},
{"type":"Feature","geometry":{"type":"Polygon","coordinates":[[[6.2059,53.3339],[6.1753,53.3326],[6.181,53.3207],[6.1519,53.3082],[6.1306,53.3035],[6.1225,53.3148],[6.1066,53.319],[6.075,53.3176],[6.0213,53.2609],[6.0098,53.2557],[5.9708,53.2646],[5.9542,53.2646],[5.9422,53.2607],[5.901,53.2349],[5.8799,53.2333],[5.8807,53.225],[5.8979,53.2087],[5.8536,53.1891],[5.8619,53.1715],[5.9243,53.1684],[5.9327,53.164],[5.919,53.1492],[5.9279,53.1089],[5.886,53.0944],[5.8986,53.0965],[5.8992,53.0985],[5.9152,53.1004],[5.9221,53.0946],[5.9267,53.0783],[5.9473,53.0625],[5.9576,53.0535],[6.0674,53.0386],[6.1351,53.0583],[6.1713,53.0199],[6.2058,53.038],[6.2231,53.0393],[6.2805,53.0582],[6.2814,53.0642],[6.3321,53.0753],[6.3053,53.0812],[6.2617,53.1143],[6.2056,53.1155],[6.1752,53.1359],[6.1773,53.167],[6.1996,53.1984],[6.1781,53.2436],[6.2203,53.2595],[6.221,53.3021],[6.219,53.3092],[6.2059,53.3339]]]},"properties":{"postcode2":"92"}},
{"type":"Feature","geometry":{"type":"Polygon","coordinates":[[[6.3984,53.2064],[6.375,53.2091],[6.3753,53.2126],[6.3569,53.2076],[6.3486,53.2107],[6.3463,53.2076],[6.2574,53.1522],[6.2389,53.1589],[6.1914,53.1394],[6.1758,53.135],[6.2056,53.1155],[6.2617,53.1143],[6.3053,53.0812],[6.3678,53.0674],[6.3625,53.034],[6.4133,52.9855],[6.5059,53.0101],[6.5134,53.0723],[6.4803,53.1208],[6.5109,53.1307],[6.5384,53.1301],[6.5401,53.1389],[6.5134,53.1969],[6.4352,53.1848],[6.4056,53.1765],[6.3984,53.2064]]]},"properties":{"postcode2":"93"}},
{"type":"Feature","geometry":{"type":"Polygon","coordinates":[[[6.6891,53.1447],[6.5853,53.1203],[6.5626,53.1127],[6.5406,53.125],[6.5384,53.1301],[6.5109,53.1307],[6.4803,53.1208],[6.5134,53.0723],[6.5059,53.0101],[6.4133,52.9855],[6.4276,52.9718],[6.3934,52.9328],[6.3436,52.9106],[6.3666,52.9029],[6.352,52.8913],[6.3606,52.8852],[6.3632,52.8874],[6.3691,52.8849],[6.42,52.8823],[6.4699,52.8373],[6.4612,52.8304],[6.4634,52.8282],[6.4578,52.8252],[6.4469,52.809],[6.4918,52.7931],[6.5485,52.7713],[6.6207,52.7887],[6.6319,52.7878],[6.639,52.7826],[6.6609,52.8012],[6.6948,52.8088],[6.694,52.8145],[6.7363,52.8787],[6.7337,52.8874],[6.7305,52.9551],[6.7888,52.9628],[6.8289,53.0042],[6.8219,53.0311],[6.8204,53.0359],[6.7877,53.0443],[6.7765,53.0948],[6.6954,53.1212],[6.6891,53.1447]]]},"properties":{"postcode2":"94"}},
{"type":"Feature","geometry":{"type":"Polygon","coordinates":[[[7.0698,53.0667],[7.0684,53.0684],[7.0602,53.0658],[7.0388,53.0622],[6.9665,53.0112],[6.8814,53.0466],[6.8117,53.0517],[6.8255,53.0431],[6.8156,53.0385],[6.8204,53.0359],[6.8219,53.0311],[6.8289,53.0042],[6.7888,52.9628],[6.7305,52.9551],[6.7337,52.8874],[6.7347,52.884],[6.7397,52.8846],[6.7383,52.8878],[6.7495,52.8931],[6.7609,52.8751],[6.8268,52.8813],[6.8328,52.8814],[6.8755,52.914],[6.8989,52.8669],[6.9995,52.9257],[7.0096,52.9301],[7.0216,52.9193],[7.0379,52.9085],[7.0403,52.8728],[7.0927,52.8382],[7.1044,52.8639],[7.1815,52.9416],[7.2129,53.0111],[7.2042,53.0556],[7.0698,53.0667]]]},"properties":{"postcode2":"95"}},
{"type":"Feature","geometry":{"type":"Polygon","coordinates":[[[6.8897,53.2927],[6.8607,53.295],[6.8143,53.2976],[6.64,53.2325],[6.6569,53.1812],[6.6903,53.1512],[6.6954,53.1212],[6.7765,53.0948],[6.7877,53.0443],[6.8156,53.0385],[6.8255,53.0431],[6.8117,53.0517],[6.8814,53.0466],[6.9665,53.0112],[7.0388,53.0622],[7.0602,53.0658],[7.0684,53.0684],[7.0698,53.0667],[7.2042,53.0556],[7.2028,53.1134],[7.179,53.1385],[7.2176,53.1978],[7.2057,53.2363],[7.0932,53.2571],[7.0654,53.2413],[7.0642,53.2266],[7.0475,53.2257],[7.0339,53.2266],[7.0129,53.2454],[6.9501,53.1907],[6.9093,53.2376],[6.8897,53.2927]]]},"properties":{"postcode2":"96"}},
{"type":"Feature","geometry":{"type":"Polygon","coordinates":[[[6.7725,53.2831],[6.7427,53.311],[6.6896,53.2975],[6.6102,53.3301],[6.6018,53.3294],[6.5214,53.3096],[6.5065,53.3064],[6.4997,53.3006],[6.5033,53.2897],[6.4429,53.1877],[6.4352,53.1848],[6.5134,53.1969],[6.5401,53.1389],[6.5406,53.125],[6.5626,53.1127],[6.5853,53.1203],[6.6891,53.1447],[6.6569,53.1812],[6.64,53.2325],[6.7725,53.2831]]]},"properties":{"postcode2":"97"}},
{"type":"Feature","geometry":{"type":"Polygon","coordinates":[[[6.2923,53.3376],[6.2059,53.3339],[6.219,53.3092],[6.221,53.3021],[6.2203,53.2595],[6.1781,53.2436],[6.1996,53.1984],[6.1773,53.167],[6.1758,53.135],[6.1914,53.1394],[6.2389,53.1589],[6.2574,53.1522],[6.3463,53.2076],[6.3486,53.2107],[6.3569,53.2076],[6.3753,53.2126],[6.375,53.2091],[6.3984,53.2064],[6.4056,53.1765],[6.4429,53.1877],[6.5033,53.2897],[6.482,53.3168],[6.4502,53.3219],[6.4367,53.3226],[6.4236,53.3271],[6.4091,53.3214],[6.3447,53.3191],[6.2923,53.3376]]]},"properties":{"postcode2":"98"}},
{"type":"Feature","geometry":{"type":"Polygon","coordinates":[[[7.0932,53.2571],[7.0842,53.2976],[6.9281,53.3277],[6.8971,53.3556],[6.8742,53.408],[6.8824,53.4399],[6.8429,53.4564],[6.746,53.466],[6.6399,53.4528],[6.5676,53.4317],[6.3964,53.4199],[6.3092,53.393],[6.2493,53.4155],[6.191,53.4107],[6.1845,53.3785],[6.2377,53.3692],[6.2923,53.3376],[6.3447,53.3191],[6.4091,53.3214],[6.4236,53.3271],[6.4367,53.3226],[6.4502,53.3219],[6.482,53.3168],[6.4997,53.3006],[6.5065,53.3064],[6.5214,53.3096],[6.6018,53.3294],[6.6102,53.3301],[6.6896,53.2975],[6.7427,53.311],[6.7725,53.2831],[6.8143,53.2976],[6.8607,53.295],[6.8897,53.2927],[6.9093,53.2376],[6.9501,53.1907],[7.0129,53.2454],[7.0339,53.2266],[7.0475,53.2257],[7.0642,53.2266],[7.0654,53.2413],[7.0932,53.2571]]]},"properties":{"postcode2":"99"}}
]}