{"type":"FeatureCollection", "features": [
{"type":"Feature","geometry":{"type":"Polygon","coordinates":[[[4.353886576127583,51.14786362278269],[4.32992028040622,51.161620295061184],[4.322600467918233,51.13125205615546],[4.306773741815047,51.1248405392252],[4.312187232297447,51.11535221388968],[4.353890442906499,51.11393876129545],[4.359682877722666,51.10943050726435],[4.4006127325485185,51.117965201924555],[4.40141315578413,51.14975489032744],[4.462844672422612,51.14710791545508],[4.458239338733657,51.16110849327317],[4.479885567105422,51.16274985760112],[4.483798747368413,51.18053896818592],[4.472987233519278,51.186716575705255],[4.433909565794189,51.173225800449444],[4.399870310996647,51.15117833905035],[4.353886576127583,51.14786362278269]]]},"properties":{"postcode2":"26"}},
{"type":"Feature","geometry":{"type":"Polygon","coordinates":[[[4.399870310996647,51.15117833905035],[4.433909565794189,51.173225800449444],[4.472987233519278,51.186716575705255],[4.483798747368413,51.18053896818592],[4.50895987777482,51.18976139649877],[4.530234895370649,51.18996931597515],[4.562468364414419,51.221233208009885],[4.5462085590726415,51.22007365708392],[4.5292643338627325,51.242401010085835],[4.481629484396537,51.23818864146343],[4.4607914128182165,51.26857487340076],[4.440309084900168,51.297531658937984],[4.41706201005718,51.306798070216985],[4.368220725569193,51.35615295592242],[4.334444411737938,51.37773859617687],[4.24209026410821,51.3539618045175],[4.3008073019476605,51.26243525117038],[4.35193771955392,51.24014988190889],[4.329904813290556,51.18558301471384],[4.32992028040622,51.161620295061184],[4.353886576127583,51.14786362278269],[4.399870310996647,51.15117833905035]]]},"properties":{"postcode2":"21"}},
{"type":"Feature","geometry":{"type":"Polygon","coordinates":[[[4.479885567105422,51.16274985760112],[4.458239338733657,51.16110849327317],[4.462844672422612,51.14710791545508],[4.40141315578413,51.14975489032744],[4.4006127325485185,51.117965201924555],[4.465427680738499,51.09301286553336],[4.4707831695371585,51.07308058496127],[4.548737432483705,51.080571683788115],[4.600026388025521,51.07525974101178],[4.566311942656922,51.04092103979752],[4.6347925972592705,51.017294190068235],[4.685315930575717,51.02404557537334],[4.673363716946364,51.08077960326449],[4.687933739901849,51.12273335530113],[4.714220102972812,51.12597809866808],[4.720205876734779,51.15063454965058],[4.69451499761688,51.17846777032507],[4.6361111688696255,51.175059090447895],[4.643724856555229,51.21893009996384],[4.615566972488922,51.23607545986216],[4.562468364414419,51.221233208009885],[4.530234895370649,51.18996931597515],[4.50895987777482,51.18976139649877],[4.483798747368413,51.18053896818592],[4.479885567105422,51.16274985760112]]]},"properties":{"postcode2":"25"}},
{"type":"Feature","geometry":{"type":"Polygon","coordinates":[[[4.36045236672695,51.08452015461358],[4.322681670275468,51.02662657579647],[4.381263370852858,51.02947547246801],[4.389727749899981,51.005748661452],[4.491818446840195,51.00923731035855],[4.528742318709073,50.9923458521285],[4.548037545499909,51.00275382130185],[4.585734773151987,50.991538164931804],[4.600768809577392,50.994355073991585],[4.6347925972592705,51.017294190068235],[4.566311942656922,51.04092103979752],[4.600026388025521,51.07525974101178],[4.548737432483705,51.080571683788115],[4.4707831695371585,51.07308058496127],[4.465427680738499,51.09301286553336],[4.4006127325485185,51.117965201924555],[4.359682877722666,51.10943050726435],[4.353890442906499,51.11393876129545],[4.312187232297447,51.11535221388968],[4.306773741815047,51.1248405392252],[4.285920203121063,51.12364300301029],[4.175945143971126,51.10122168639886],[4.197324564597686,51.05783648873638],[4.328029425516296,51.10159754083693],[4.340383784152913,51.0951940208096],[4.36045236672695,51.08452015461358]]]},"properties":{"postcode2":"28"}},
{"type":"Feature","geometry":{"type":"Polygon","coordinates":[[[4.4607914128182165,51.26857487340076],[4.481629484396537,51.23818864146343],[4.5292643338627325,51.242401010085835],[4.5462085590726415,51.22007365708392],[4.562468364414419,51.221233208009885],[4.615566972488922,51.23607545986216],[4.643724856555229,51.21893009996384],[4.742231049440312,51.24498600896043],[4.742621594110828,51.24522191759709],[4.715051460439752,51.28587617290636],[4.634490988503822,51.293681150173505],[4.718083015109896,51.3269062826537],[4.718458092664747,51.37577335727994],[4.7169577824453395,51.38242078284686],[4.6698720155852165,51.42643973506715],[4.53536611099218,51.422919098548846],[4.533150446673312,51.45352324609123],[4.538316463305087,51.482454041693906],[4.38535055616707,51.44961475978045],[4.395056171246228,51.42683958021403],[4.419853824434531,51.36444174581729],[4.394615358449804,51.35591104960856],[4.368220725569193,51.35615295592242],[4.41706201005718,51.306798070216985],[4.440309084900168,51.297531658937984],[4.4607914128182165,51.26857487340076]]]},"properties":{"postcode2":"29"}},
{"type":"Feature","geometry":{"type":"Polygon","coordinates":[[[4.6361111688696255,51.175059090447895],[4.69451499761688,51.17846777032507],[4.720205876734779,51.15063454965058],[4.714220102972812,51.12597809866808],[4.687933739901849,51.12273335530113],[4.673363716946364,51.08077960326449],[4.685315930575717,51.02404557537334],[4.695543560808535,50.999103235110816],[4.753143099541262,51.02407356453362],[4.789115743796803,51.03889582412856],[4.799041765274174,51.028419881280236],[4.809663806956424,51.01082269636594],[4.935960539910793,51.03637080202599],[4.966539027578516,51.046181002704756],[4.941636971359481,51.08972413920025],[4.938566748900177,51.09116358172903],[4.9044849595345585,51.1470799262948],[4.894624673298761,51.19694661378824],[4.880684935306583,51.195823048925504],[4.863029222776131,51.20823624151047],[4.906874628904647,51.28514445628757],[4.837581950729939,51.292323675899844],[4.776169767986037,51.2731031196892],[4.7612556017070276,51.25109164435332],[4.742621594110828,51.24522191759709],[4.742231049440312,51.24498600896043],[4.643724856555229,51.21893009996384],[4.6361111688696255,51.175059090447895]]]},"properties":{"postcode2":"22"}},
{"type":"Feature","geometry":{"type":"Polygon","coordinates":[[[4.3008073019476605,51.26243525117038],[4.319456776659525,51.197440422544645],[4.329904813290556,51.18558301471384],[4.35193771955392,51.24014988190889],[4.3008073019476605,51.26243525117038]]]},"properties":{"postcode2":"20"}},
{"type":"Feature","geometry":{"type":"Polygon","coordinates":[[[4.634490988503822,51.293681150173505],[4.715051460439752,51.28587617290636],[4.742621594110828,51.24522191759709],[4.7612556017070276,51.25109164435332],[4.776169767986037,51.2731031196892],[4.837581950729939,51.292323675899844],[4.906874628904647,51.28514445628757],[4.910772342051974,51.28678582061552],[4.980865443462294,51.28287933353048],[5.019134954393939,51.27602998616438],[5.049276496044154,51.29673596709569],[5.140277271053282,51.291188115682694],[5.134480969458199,51.315424729260975],[5.131515150029628,51.346996502058815],[5.07129780197077,51.39339653212878],[5.1045366335327005,51.431385819534086],[5.079116428938921,51.47163423201927],[4.927987241786003,51.395355773348506],[4.914001102446834,51.39518583916108],[4.867537886992185,51.40915243014169],[4.859788862044523,51.411319590837785],[4.8462048677126175,51.412799017881255],[4.840280962413306,51.47853356002872],[4.752512814577954,51.49972935126496],[4.6698720155852165,51.42643973506715],[4.7169577824453395,51.38242078284686],[4.718458092664747,51.37577335727994],[4.718083015109896,51.3269062826537],[4.634490988503822,51.293681150173505]]]},"properties":{"postcode2":"23"}},
{"type":"Feature","geometry":{"type":"MultiPolygon","coordinates":[[[[4.340383784152913,51.0951940208096],[4.328029425516296,51.10159754083693],[4.197324564597686,51.05783648873638],[4.190062753793439,51.03979547570904],[4.240953431106907,51.03677464562435],[4.322681670275468,51.02662657579647],[4.36045236672695,51.08452015461358],[4.340383784152913,51.0951940208096]]],[[[3.4543345962251637,50.949362498838646],[3.5267013636380913,50.94776111902538],[3.4667778907768496,50.90200284041615],[3.471070015373609,50.878306017786166],[3.548649200765303,50.88005534030378],[3.6676145208949387,50.889357737645994],[3.6854133042452837,50.907730622145245],[3.6266537318377576,50.928496579848584],[3.5420022078087006,50.95285114774519],[3.6073159704788456,50.98318340058769],[3.6062062049299533,51.02849385263241],[3.6131432063052564,51.07670318199202],[3.6588988012182764,51.087185122517546],[3.6456744173255586,51.169907085730316],[3.608131860830121,51.17275998085332],[3.5449061587746162,51.16237600238879],[3.5158086474317214,51.146985962685285],[3.4108294666412555,51.159950941572944],[3.3313903605909654,51.09878463022861],[3.426080042685957,51.035033320009674],[3.4449460570171175,51.01643852145391],[3.4263777846624888,50.98141408581274],[3.4543345962251637,50.949362498838646]]],[[[3.965178625596751,50.689765036450964],[3.95867470346004,50.689505137105485],[3.9096710142575803,50.69241201132332],[3.8954954027515267,50.73293031928265],[3.815627084241561,50.75061946858073],[3.775818595301348,50.74781855332682],[3.7450235680143296,50.72938969050701],[3.758093280750407,50.695764712879935],[3.881520863749105,50.675928395143096],[3.895046856397271,50.62283095886284],[3.9042884580065094,50.61551179344916],[3.961810661160915,50.59009563668758],[4.026412936510516,50.63372074143818],[4.066797575509213,50.65423479669899],[4.091950972357789,50.669005076424824],[4.100542955109139,50.70604073315481],[4.0721839985392005,50.71166855359718],[3.965178625596751,50.689765036450964]]],[[[4.24702040722611,50.59641319000832],[4.226054731943561,50.58286643643194],[4.186184374540693,50.524916879294274],[4.0755790304274475,50.46537993692348],[4.075729834805172,50.4404635865955],[4.058665739448866,50.430455462569036],[4.04097522590817,50.400984876018065],[4.027963514855832,50.358473340001524],[4.042904748587254,50.34000649189276],[4.132586951986026,50.33048817817122],[4.179935659812438,50.36260374036882],[4.185677826502697,50.35098623962615],[4.242589078588375,50.38095463338499],[4.252375896024769,50.42343818024125],[4.263025005159431,50.42534744081761],[4.267502735144158,50.471621519666314],[4.2815546097249,50.49630795903484],[4.286875297513315,50.506989822133804],[4.310106905240639,50.5238492927521],[4.325342014169676,50.5492434580306],[4.24702040722611,50.59641319000832]]],[[[3.21265704719629,50.76169118069791],[3.178300716527636,50.756129334704774],[3.245234659563584,50.7131219907061],[3.323900409830675,50.72238640275936],[3.329074160020282,50.7309750765144],[3.30556027743209,50.75473387514215],[3.21265704719629,50.76169118069791]]],[[[2.937268919577734,50.79355484045297],[2.9186155780869534,50.7638983259087],[2.8780608008159523,50.761495256575934],[2.863266504683339,50.70838382571554],[3.01876128523242,50.77363255600955],[2.9989131090565952,50.8104223079742],[2.9635398155330335,50.8000403287354],[2.937268919577734,50.79355484045297]]],[[[5.607531101704808,51.03757233669238],[5.6629265764554155,51.10246320557992],[5.570015612661783,51.1074872598505],[5.546660268009147,51.130502346505054],[5.532380253472361,51.14630622593558],[5.475770610142131,51.106043818870255],[5.45449945932522,51.05499159051631],[5.5183941141331925,51.01878961091757],[5.5288034829750625,51.01892355904178],[5.607531101704808,51.03757233669238]]],[[[5.524812967133752,51.21471373288996],[5.43838659158225,51.27603598384159],[5.417533052888266,51.26222533246827],[5.320183026899066,51.18120271112975],[5.436325598420023,51.17023495875076],[5.477348255939859,51.188124030622284],[5.524812967133752,51.21471373288996]]]]},"properties":{"postcode2":null}},
{"type":"Feature","geometry":{"type":"Polygon","coordinates":[[[5.217102434556357,51.21141501042818],[5.237778101420205,51.26132368166205],[5.242097293469376,51.30518269582358],[5.134480969458199,51.315424729260975],[5.140277271053282,51.291188115682694],[5.049276496044154,51.29673596709569],[5.019134954393939,51.27602998616438],[4.980865443462294,51.28287933353048],[4.910772342051974,51.28678582061552],[4.906874628904647,51.28514445628757],[4.863029222776131,51.20823624151047],[4.880684935306583,51.195823048925504],[4.894624673298761,51.19694661378824],[4.9044849595345585,51.1470799262948],[4.938566748900177,51.09116358172903],[4.941636971359481,51.08972413920025],[4.966539027578516,51.046181002704756],[4.98142999318403,51.034951351754565],[5.010883248187197,51.073940252027064],[5.094776883548718,51.08530984877867],[5.100314110956429,51.09381655427859],[5.1304092512596515,51.116637716036905],[5.230361619459318,51.133973002379996],[5.261129579293925,51.14702794642571],[5.261349985692137,51.15841553620892],[5.217102434556357,51.21141501042818]]]},"properties":{"postcode2":"24"}},
{"type":"Feature","geometry":{"type":"Polygon","coordinates":[[[4.326289375004096,50.83065047395498],[4.3535385660251436,50.82045242348375],[4.347784798998136,50.814282812867354],[4.368120189317377,50.814758628592145],[4.4007132688003345,50.79624379906575],[4.39688129089458,50.80170368454643],[4.3980413245693795,50.813329182192035],[4.396135002563792,50.8256664041991],[4.404193369824735,50.82708785369626],[4.40765800373347,50.83894925997853],[4.399986314364127,50.84369742109776],[4.411895993425405,50.85199820634704],[4.388494247425777,50.8809509934328],[4.425746795502515,50.87215839865285],[4.436898585896257,50.87879382886536],[4.415801440130564,50.90609125704303],[4.360448499948034,50.90112318109301],[4.330852174124975,50.90088127477915],[4.313946616704226,50.893284216988384],[4.30088463752598,50.89066922972777],[4.298204959737193,50.88212653816463],[4.291685570484818,50.87524120473531],[4.288615348025514,50.873341940287624],[4.289794715594894,50.855784739888016],[4.284435360017319,50.84534278387718],[4.244959414063882,50.817787455579776],[4.300215684773512,50.81284536956431],[4.306352262913204,50.81237355229099],[4.326289375004096,50.83065047395498]]]},"properties":{"postcode2":"10"}},
{"type":"Feature","geometry":{"type":"MultiPolygon","coordinates":[[[[4.480477184279569,50.79429055552323],[4.454832706508661,50.8185151737471],[4.47670707483647,50.82039444593745],[4.461804508894208,50.848879414201356],[4.40765800373347,50.83894925997853],[4.404193369824735,50.82708785369626],[4.396135002563792,50.8256664041991],[4.3980413245693795,50.813329182192035],[4.39688129089458,50.80170368454643],[4.4007132688003345,50.79624379906575],[4.368120189317377,50.814758628592145],[4.347784798998136,50.814282812867354],[4.3535385660251436,50.82045242348375],[4.326289375004096,50.83065047395498],[4.306352262913204,50.81237355229099],[4.31173868594319,50.79742933992626],[4.325941364901656,50.77987613797812],[4.36389379996219,50.77133944409218],[4.412572679735705,50.772275081735884],[4.41679133553306,50.77346062259639],[4.45169288202887,50.78269104781217],[4.470110350005775,50.78979229762081],[4.480477184279569,50.79429055552323]]],[[[4.388494247425777,50.8809509934328],[4.411895993425405,50.85199820634704],[4.426500817391134,50.862903982728255],[4.425746795502515,50.87215839865285],[4.388494247425777,50.8809509934328]]]]},"properties":{"postcode2":"11"}},
{"type":"Feature","geometry":{"type":"Polygon","coordinates":[[[4.40765800373347,50.83894925997853],[4.461804508894208,50.848879414201356],[4.457972530988453,50.852679942322474],[4.426500817391134,50.862903982728255],[4.411895993425405,50.85199820634704],[4.399986314364127,50.84369742109776],[4.40765800373347,50.83894925997853]]]},"properties":{"postcode2":"12"}},
{"type":"Feature","geometry":{"type":"Polygon","coordinates":[[[4.291685570484818,50.87524120473531],[4.298204959737193,50.88212653816463],[4.30088463752598,50.89066922972777],[4.313946616704226,50.893284216988384],[4.330852174124975,50.90088127477915],[4.338914408164833,50.92081355535124],[4.301615458741104,50.922225008719735],[4.2726803521126815,50.9739289846631],[4.229113354066117,50.99856344416253],[4.190654370967588,50.98261961893059],[4.16367585447066,50.988983154443225],[4.147207243067419,50.96926279179898],[4.162372749975969,50.93227711571236],[4.138982604313089,50.917051012519075],[4.074109654439368,50.89935386631806],[4.089545835872038,50.88894989559618],[4.066252359682057,50.8656429219844],[4.059021483109138,50.8547091564429],[4.074631669593028,50.813463130316244],[4.036899640930706,50.7773011352322],[4.0508471124807155,50.754797850365655],[4.1164122157804,50.745935282685004],[4.14575720097392,50.780160028032405],[4.190588635726016,50.78640161077524],[4.2115891120188085,50.81466666420836],[4.244959414063882,50.817787455579776],[4.284435360017319,50.84534278387718],[4.289794715594894,50.855784739888016],[4.288615348025514,50.873341940287624],[4.291685570484818,50.87524120473531]]]},"properties":{"postcode2":"17"}},
{"type":"Feature","geometry":{"type":"Polygon","coordinates":[[[4.321390166117524,50.71984538685093],[4.358530577605698,50.716054854858484],[4.414065256397281,50.73502350862658],[4.41679133553306,50.77346062259639],[4.412572679735705,50.772275081735884],[4.36389379996219,50.77133944409218],[4.325941364901656,50.77987613797812],[4.31173868594319,50.79742933992626],[4.306352262913204,50.81237355229099],[4.300215684773512,50.81284536956431],[4.244959414063882,50.817787455579776],[4.2115891120188085,50.81466666420836],[4.190588635726016,50.78640161077524],[4.14575720097392,50.780160028032405],[4.1164122157804,50.745935282685004],[4.0721839985392005,50.71166855359718],[4.100542955109139,50.70604073315481],[4.134180064899417,50.71607484711583],[4.172059031160547,50.72159870782001],[4.189884881963303,50.76955613473709],[4.259293563505492,50.753262445001624],[4.311058132853974,50.71367177778306],[4.321390166117524,50.71984538685093]]]},"properties":{"postcode2":"16"}},
{"type":"Feature","geometry":{"type":"MultiPolygon","coordinates":[[[[3.95867470346004,50.689505137105485],[3.965178625596751,50.689765036450964],[4.0721839985392005,50.71166855359718],[4.1164122157804,50.745935282685004],[4.0508471124807155,50.754797850365655],[4.036899640930706,50.7773011352322],[4.0020019612138125,50.779098439167434],[3.9437876046334424,50.72907781129244],[3.8954954027515267,50.73293031928265],[3.9096710142575803,50.69241201132332],[3.95867470346004,50.689505137105485]]],[[[4.259293563505492,50.753262445001624],[4.189884881963303,50.76955613473709],[4.172059031160547,50.72159870782001],[4.246417189715213,50.68942516807611],[4.308011111068167,50.70014501646403],[4.311058132853974,50.71367177778306],[4.259293563505492,50.753262445001624]]],[[[4.41679133553306,50.77346062259639],[4.414065256397281,50.73502350862658],[4.424022212105979,50.73596714317323],[4.4941733152000385,50.75702498783379],[4.45169288202887,50.78269104781217],[4.41679133553306,50.77346062259639]]]]},"properties":{"postcode2":"15"}},
{"type":"Feature","geometry":{"type":"Polygon","coordinates":[[[4.360448499948034,50.90112318109301],[4.415801440130564,50.90609125704303],[4.436898585896257,50.87879382886536],[4.469599935188863,50.898698120277174],[4.514922450863291,50.89010544807067],[4.5326709660877285,50.909773830845815],[4.517447457495439,50.955586088549865],[4.483968885640716,50.95538816520216],[4.426237876424846,50.946419638557586],[4.380087870062395,50.99033063258822],[4.389727749899981,51.005748661452],[4.381263370852858,51.02947547246801],[4.322681670275468,51.02662657579647],[4.240953431106907,51.03677464562435],[4.229113354066117,50.99856344416253],[4.2726803521126815,50.9739289846631],[4.301615458741104,50.922225008719735],[4.338914408164833,50.92081355535124],[4.330852174124975,50.90088127477915],[4.360448499948034,50.90112318109301]]]},"properties":{"postcode2":"18"}},
{"type":"Feature","geometry":{"type":"MultiPolygon","coordinates":[[[[4.617055682371581,50.94473229203774],[4.604047838098159,50.95899676765278],[4.525196482443102,50.97052230401166],[4.528742318709073,50.9923458521285],[4.491818446840195,51.00923731035855],[4.389727749899981,51.005748661452],[4.380087870062395,50.99033063258822],[4.426237876424846,50.946419638557586],[4.483968885640716,50.95538816520216],[4.517447457495439,50.955586088549865],[4.5326709660877285,50.909773830845815],[4.603920234393931,50.93479614013771],[4.617055682371581,50.94473229203774]]],[[[4.425746795502515,50.87215839865285],[4.426500817391134,50.862903982728255],[4.457972530988453,50.852679942322474],[4.461804508894208,50.848879414201356],[4.47670707483647,50.82039444593745],[4.487468320559696,50.82750169342329],[4.509760301010432,50.838389476772896],[4.534055272939655,50.86777609584302],[4.514922450863291,50.89010544807067],[4.469599935188863,50.898698120277174],[4.436898585896257,50.87879382886536],[4.425746795502515,50.87215839865285]]]]},"properties":{"postcode2":"19"}},
{"type":"Feature","geometry":{"type":"Polygon","coordinates":[[[4.470110350005775,50.78979229762081],[4.45169288202887,50.78269104781217],[4.4941733152000385,50.75702498783379],[4.509420024465824,50.731380919338484],[4.562329160373443,50.7448257124024],[4.597284841774076,50.76350447843902],[4.620168439398961,50.7435242164493],[4.641950005032784,50.79875882503964],[4.691375173137088,50.79174754038906],[4.742022243378847,50.84260584384677],[4.759940896875588,50.872916105206194],[4.760621449964804,50.90779259814301],[4.743557354608499,50.93608364151068],[4.689376048437516,50.94407654599686],[4.67124085532148,50.936059650801866],[4.617055682371581,50.94473229203774],[4.603920234393931,50.93479614013771],[4.5326709660877285,50.909773830845815],[4.514922450863291,50.89010544807067],[4.534055272939655,50.86777609584302],[4.509760301010432,50.838389476772896],[4.487468320559696,50.82750169342329],[4.47670707483647,50.82039444593745],[4.454832706508661,50.8185151737471],[4.480477184279569,50.79429055552323],[4.470110350005775,50.78979229762081]]]},"properties":{"postcode2":"30"}},
{"type":"Feature","geometry":{"type":"Polygon","coordinates":[[[4.809663806956424,51.01082269636594],[4.7739309029936745,50.97821332541194],[4.798345745069294,50.95416064060123],[4.743557354608499,50.93608364151068],[4.760621449964804,50.90779259814301],[4.759940896875588,50.872916105206194],[4.810123953647428,50.858497689209614],[4.895684170721745,50.85196821796102],[4.910420465170619,50.86423946551884],[4.910992748450186,50.88037121796982],[4.8486873397766885,50.91101734925262],[4.868786856582053,50.956247832267955],[4.933485801404554,50.96022229302797],[5.021675428141751,50.964264727462954],[5.042146155723051,50.9427950423011],[5.12460134932782,50.997807736834915],[5.159719435442927,51.024147535885795],[5.121562061099845,51.04765243284528],[5.022077573149015,51.02002113396997],[4.98142999318403,51.034951351754565],[4.966539027578516,51.046181002704756],[4.935960539910793,51.03637080202599],[4.809663806956424,51.01082269636594]]]},"properties":{"postcode2":"32"}},
{"type":"Feature","geometry":{"type":"Polygon","coordinates":[[[4.753143099541262,51.02407356453362],[4.695543560808535,50.999103235110816],[4.685315930575717,51.02404557537334],[4.6347925972592705,51.017294190068235],[4.600768809577392,50.994355073991585],[4.585734773151987,50.991538164931804],[4.548037545499909,51.00275382130185],[4.528742318709073,50.9923458521285],[4.525196482443102,50.97052230401166],[4.604047838098159,50.95899676765278],[4.617055682371581,50.94473229203774],[4.67124085532148,50.936059650801866],[4.689376048437516,50.94407654599686],[4.743557354608499,50.93608364151068],[4.798345745069294,50.95416064060123],[4.7739309029936745,50.97821332541194],[4.809663806956424,51.01082269636594],[4.799041765274174,51.028419881280236],[4.789115743796803,51.03889582412856],[4.753143099541262,51.02407356453362]]]},"properties":{"postcode2":"31"}},
{"type":"Feature","geometry":{"type":"Polygon","coordinates":[[[4.939575978197253,50.89280840126359],[4.971952518060915,50.89999761700454],[4.988165922055701,50.847949774234856],[4.998509555655999,50.84623443855473],[5.059384256130576,50.860596876230744],[5.077948661706289,50.793810741346974],[5.012770236298204,50.79490431782369],[4.986348535965181,50.76918427875049],[5.019436563149387,50.75073142522186],[5.0564648380489965,50.71563701667999],[5.103453935436221,50.709177518332105],[5.116972194526554,50.76414023222256],[5.106477756548532,50.77915641671373],[5.148440041344957,50.85813383012595],[5.150357963687292,50.857883926909146],[5.18670181871877,50.89369805671541],[5.132590114568275,50.921591254161925],[5.092016003402694,50.90903811577555],[5.045456118475147,50.93233509325866],[5.042146155723051,50.9427950423011],[5.021675428141751,50.964264727462954],[4.933485801404554,50.96022229302797],[4.939575978197253,50.89280840126359]]]},"properties":{"postcode2":"34"}},
{"type":"Feature","geometry":{"type":"Polygon","coordinates":[[[4.69902752861185,50.78935246795923],[4.796481957631782,50.79543611186905],[4.800650345303229,50.790438047533016],[4.831132163498052,50.770625720504995],[4.925473835490603,50.74292045027751],[4.95316770608699,50.752036919626434],[4.986348535965181,50.76918427875049],[5.012770236298204,50.79490431782369],[5.077948661706289,50.793810741346974],[5.059384256130576,50.860596876230744],[4.998509555655999,50.84623443855473],[4.988165922055701,50.847949774234856],[4.971952518060915,50.89999761700454],[4.939575978197253,50.89280840126359],[4.933485801404554,50.96022229302797],[4.868786856582053,50.956247832267955],[4.8486873397766885,50.91101734925262],[4.910992748450186,50.88037121796982],[4.910420465170619,50.86423946551884],[4.895684170721745,50.85196821796102],[4.810123953647428,50.858497689209614],[4.759940896875588,50.872916105206194],[4.742022243378847,50.84260584384677],[4.691375173137088,50.79174754038906],[4.69902752861185,50.78935246795923]]]},"properties":{"postcode2":"33"}},
{"type":"Feature","geometry":{"type":"Polygon","coordinates":[[[4.69902752861185,50.78935246795923],[4.691375173137088,50.79174754038906],[4.641950005032784,50.79875882503964],[4.620168439398961,50.7435242164493],[4.597284841774076,50.76350447843902],[4.562329160373443,50.7448257124024],[4.509420024465824,50.731380919338484],[4.4941733152000385,50.75702498783379],[4.424022212105979,50.73596714317323],[4.44083883361166,50.715551049973406],[4.412085465592289,50.67997682725528],[4.400960742650959,50.64391479345795],[4.491969251217919,50.65499850092954],[4.52484073878283,50.651635803244254],[4.591380270369346,50.654368744823195],[4.648016981151988,50.662311668666014],[4.666310712203581,50.652535454824736],[4.742466922954188,50.661563958241345],[4.743178410274732,50.65491853190016],[4.734412422472161,50.6105757051109],[4.788199317193712,50.602084993416845],[4.852499983787864,50.615355853841876],[4.941099489090156,50.64342298392729],[4.983514187019754,50.64225343687266],[4.9881427213822045,50.645314251472044],[5.017232499167267,50.70257607495707],[4.992635918482596,50.72359393510295],[5.019436563149387,50.75073142522186],[4.986348535965181,50.76918427875049],[4.95316770608699,50.752036919626434],[4.925473835490603,50.74292045027751],[4.831132163498052,50.770625720504995],[4.800650345303229,50.790438047533016],[4.796481957631782,50.79543611186905],[4.69902752861185,50.78935246795923]]]},"properties":{"postcode2":"13"}},
{"type":"Feature","geometry":{"type":"Polygon","coordinates":[[[4.311058132853974,50.71367177778306],[4.308011111068167,50.70014501646403],[4.246417189715213,50.68942516807611],[4.172059031160547,50.72159870782001],[4.134180064899417,50.71607484711583],[4.100542955109139,50.70604073315481],[4.091950972357789,50.669005076424824],[4.177259848802565,50.663475218043445],[4.199095549341214,50.65235552450864],[4.2534701944579965,50.61587565253282],[4.24702040722611,50.59641319000832],[4.325342014169676,50.5492434580306],[4.377226453664555,50.55921359676812],[4.382191397792698,50.56395775943587],[4.469569000957535,50.55892570826236],[4.502676362036321,50.52851748484195],[4.577479200166328,50.54240010834171],[4.575275136184208,50.56091293864237],[4.6275733210231,50.56436360225996],[4.65681003640697,50.60154520246856],[4.734412422472161,50.6105757051109],[4.743178410274732,50.65491853190016],[4.742466922954188,50.661563958241345],[4.666310712203581,50.652535454824736],[4.648016981151988,50.662311668666014],[4.591380270369346,50.654368744823195],[4.52484073878283,50.651635803244254],[4.491969251217919,50.65499850092954],[4.400960742650959,50.64391479345795],[4.412085465592289,50.67997682725528],[4.44083883361166,50.715551049973406],[4.424022212105979,50.73596714317323],[4.414065256397281,50.73502350862658],[4.358530577605698,50.716054854858484],[4.321390166117524,50.71984538685093],[4.311058132853974,50.71367177778306]]]},"properties":{"postcode2":"14"}},
{"type":"Feature","geometry":{"type":"Polygon","coordinates":[[[3.289687149981913,51.20067516978292],[3.2727738590033315,51.17940340796878],[3.3020415086185304,51.099236455244586],[3.1627871995166466,51.06516165182726],[3.183308195223855,51.01601268637248],[3.223692834222552,51.019257429739426],[3.2438658198273207,50.965112399174345],[3.229280329756171,50.94741325374759],[3.230490631556879,50.94505216815525],[3.240428253370997,50.89935186709232],[3.2673913027522605,50.89699477995145],[3.286825733584073,50.90429395310779],[3.3141019920575325,50.90525158223458],[3.3299944534022896,50.88166271779424],[3.3412893146159237,50.85684632875299],[3.3921103899089027,50.850632735170436],[3.453248031349768,50.86606875706583],[3.471070015373609,50.878306017786166],[3.4667778907768496,50.90200284041615],[3.4197037242534742,50.910889398805615],[3.424394127078581,50.926349411409824],[3.4543345962251637,50.949362498838646],[3.4263777846624888,50.98141408581274],[3.4449460570171175,51.01643852145391],[3.426080042685957,51.035033320009674],[3.3313903605909654,51.09878463022861],[3.4108294666412555,51.159950941572944],[3.3602829326513124,51.1918026059736],[3.289687149981913,51.20067516978292]]]},"properties":{"postcode2":"87"}},
{"type":"Feature","geometry":{"type":"MultiPolygon","coordinates":[[[[3.1078866724672882,51.31491292747297],[3.105040723185113,51.29091822020855],[3.081310300977625,51.237516901616665],[3.1407310925797867,51.215841296204175],[3.1928823398198696,51.25053386037342],[3.1693955246840897,51.29063433015426],[3.153700269064048,51.327961873841474],[3.1078866724672882,51.31491292747297]]],[[[3.3602829326513124,51.1918026059736],[3.3991904621040976,51.23720302317636],[3.3813723448591726,51.27454256221798],[3.3721887449336743,51.305546554907245],[3.3629896778925117,51.37308439866715],[3.2272386704885236,51.35075104798804],[3.2619082102493735,51.29603423886291],[3.246313490881148,51.25104766138717],[3.289687149981913,51.20067516978292],[3.3602829326513124,51.1918026059736]]]]},"properties":{"postcode2":"83"}},
{"type":"Feature","geometry":{"type":"Polygon","coordinates":[[[3.289687149981913,51.20067516978292],[3.246313490881148,51.25104766138717],[3.2619082102493735,51.29603423886291],[3.2272386704885236,51.35075104798804],[3.153700269064048,51.327961873841474],[3.1693955246840897,51.29063433015426],[3.1928823398198696,51.25053386037342],[3.1407310925797867,51.215841296204175],[3.1425716793438023,51.16010088350303],[3.2139601516909817,51.16508695248465],[3.155741928331696,51.08407232804907],[3.1580735960180437,51.0684343843545],[3.1627871995166466,51.06516165182726],[3.3020415086185304,51.099236455244586],[3.2727738590033315,51.17940340796878],[3.289687149981913,51.20067516978292]]]},"properties":{"postcode2":"80"}},
{"type":"Feature","geometry":{"type":"Polygon","coordinates":[[[3.1407310925797867,51.215841296204175],[3.081310300977625,51.237516901616665],[3.105040723185113,51.29091822020855],[3.1078866724672882,51.31491292747297],[2.9841342800396458,51.26347684777801],[2.9401187356388254,51.24587366518651],[2.8385307199576912,51.20213660379478],[2.7461765723279634,51.16508095480745],[2.8209214087742303,51.102483197837266],[2.8992932838437047,51.11510630912435],[2.9068373695088194,51.12089406762547],[2.9819147489418625,51.1289129620462],[3.0145155619826527,51.06996779049279],[3.0437136095773636,51.06056943031532],[3.0664773370558516,51.102345251261596],[3.0784140835695415,51.145660476023366],[3.1425716793438023,51.16010088350303],[3.1407310925797867,51.215841296204175]]]},"properties":{"postcode2":"84"}},
{"type":"Feature","geometry":{"type":"Polygon","coordinates":[[[3.155741928331696,51.08407232804907],[3.0664773370558516,51.102345251261596],[3.0437136095773636,51.06056943031532],[3.069644228988055,51.01553487142195],[3.019623576930688,50.999315153038665],[2.973848648123088,50.984073056039506],[2.958984749969986,50.95304707186717],[2.989698574899769,50.91615336016432],[3.0617830674518283,50.92361646983088],[3.0658045175244677,50.91725293431825],[3.028718240941118,50.88266832833865],[3.069470223936835,50.85393545608368],[3.1025350504475453,50.838157566587704],[3.132610856856188,50.8477318586298],[3.2089642733315107,50.865826850751965],[3.206083523039091,50.873629828793376],[3.240706661452949,50.871590618544275],[3.271261948447176,50.879235657752666],[3.2673913027522605,50.89699477995145],[3.240428253370997,50.89935186709232],[3.230490631556879,50.94505216815525],[3.229280329756171,50.94741325374759],[3.2438658198273207,50.965112399174345],[3.223692834222552,51.019257429739426],[3.183308195223855,51.01601268637248],[3.1627871995166466,51.06516165182726],[3.1580735960180437,51.0684343843545],[3.155741928331696,51.08407232804907]]]},"properties":{"postcode2":"88"}},
{"type":"Feature","geometry":{"type":"Polygon","coordinates":[[[3.1425716793438023,51.16010088350303],[3.0784140835695415,51.145660476023366],[3.0664773370558516,51.102345251261596],[3.155741928331696,51.08407232804907],[3.2139601516909817,51.16508695248465],[3.1425716793438023,51.16010088350303]]]},"properties":{"postcode2":"82"}},
{"type":"Feature","geometry":{"type":"Polygon","coordinates":[[[2.8209214087742303,51.102483197837266],[2.7461765723279634,51.16508095480745],[2.6991681410461594,51.14971690503849],[2.6019650526557685,51.113662868144104],[2.541322358916151,51.09399448536895],[2.5659344067164866,51.04619699651063],[2.6102438263149232,50.98539654347569],[2.6075680153050516,50.91273668338421],[2.6989670685425278,50.92711711409184],[2.701325803681287,50.88205856448966],[2.7690988377420074,50.889405719063625],[2.8097038831389165,50.90513562714198],[2.8525323264125246,50.936305555567195],[2.856542176148416,50.94323887041414],[2.958984749969986,50.95304707186717],[2.973848648123088,50.984073056039506],[3.019623576930688,50.999315153038665],[3.069644228988055,51.01553487142195],[3.0437136095773636,51.06056943031532],[3.0145155619826527,51.06996779049279],[2.9819147489418625,51.1289129620462],[2.9068373695088194,51.12089406762547],[2.8992932838437047,51.11510630912435],[2.8209214087742303,51.102483197837266]]]},"properties":{"postcode2":"86"}},
{"type":"Feature","geometry":{"type":"Polygon","coordinates":[[[2.8097038831389165,50.90513562714198],[2.7690988377420074,50.889405719063625],[2.701325803681287,50.88205856448966],[2.6989670685425278,50.92711711409184],[2.6075680153050516,50.91273668338421],[2.6350724137345547,50.81299131304292],[2.7128913394190413,50.8152964203147],[2.789457428734744,50.728775928206545],[2.863266504683339,50.70838382571554],[2.8780608008159523,50.761495256575934],[2.9186155780869534,50.7638983259087],[2.937268919577734,50.79355484045297],[2.9635398155330335,50.8000403287354],[2.9989131090565952,50.8104223079742],[3.01876128523242,50.77363255600955],[3.098745607109866,50.77902846626673],[3.178300716527636,50.756129334704774],[3.21265704719629,50.76169118069791],[3.208484792745927,50.80697364358234],[3.104994321838121,50.83225185376825],[3.1025350504475453,50.838157566587704],[3.069470223936835,50.85393545608368],[3.028718240941118,50.88266832833865],[3.0658045175244677,50.91725293431825],[3.0617830674518283,50.92361646983088],[2.989698574899769,50.91615336016432],[2.958984749969986,50.95304707186717],[2.856542176148416,50.94323887041414],[2.8525323264125246,50.936305555567195],[2.8097038831389165,50.90513562714198]]]},"properties":{"postcode2":"89"}},
{"type":"Feature","geometry":{"type":"Polygon","coordinates":[[[3.3921103899089027,50.850632735170436],[3.3412893146159237,50.85684632875299],[3.3299944534022896,50.88166271779424],[3.3141019920575325,50.90525158223458],[3.286825733584073,50.90429395310779],[3.2673913027522605,50.89699477995145],[3.271261948447176,50.879235657752666],[3.240706661452949,50.871590618544275],[3.206083523039091,50.873629828793376],[3.2089642733315107,50.865826850751965],[3.132610856856188,50.8477318586298],[3.1025350504475453,50.838157566587704],[3.104994321838121,50.83225185376825],[3.208484792745927,50.80697364358234],[3.21265704719629,50.76169118069791],[3.30556027743209,50.75473387514215],[3.329074160020282,50.7309750765144],[3.323900409830675,50.72238640275936],[3.3652788110107834,50.72132281466866],[3.403161644050829,50.741570972906786],[3.45341043606424,50.75810656895611],[3.4590365993870194,50.76455607117532],[3.5234648696854,50.80537226376908],[3.5095096645775583,50.8135770861831],[3.453248031349768,50.86606875706583],[3.3921103899089027,50.850632735170436]]]},"properties":{"postcode2":"85"}},
{"type":"Feature","geometry":{"type":"Polygon","coordinates":[[[4.162372749975969,50.93227711571236],[4.147207243067419,50.96926279179898],[4.072021593824728,50.98950695158564],[4.015431284389078,50.98721983734547],[4.006205149895504,50.985056675100836],[3.912652300801816,50.98355325734856],[3.867909801964788,50.95419062898725],[3.9375968915889277,50.94995426965603],[4.006425556293715,50.955873977055624],[3.9859586954913313,50.9164252548642],[4.041408305146762,50.904489877229764],[4.074109654439368,50.89935386631806],[4.138982604313089,50.917051012519075],[4.162372749975969,50.93227711571236]]]},"properties":{"postcode2":"93"}},
{"type":"Feature","geometry":{"type":"Polygon","coordinates":[[[4.089545835872038,50.88894989559618],[4.074109654439368,50.89935386631806],[4.041408305146762,50.904489877229764],[3.9859586954913313,50.9164252548642],[4.006425556293715,50.955873977055624],[3.9375968915889277,50.94995426965603],[3.8928969273199754,50.91822855647664],[3.9375040888949435,50.87497730693837],[3.9487486819826696,50.8629179773084],[3.921035477491703,50.82817543249578],[4.0020019612138125,50.779098439167434],[4.036899640930706,50.7773011352322],[4.074631669593028,50.813463130316244],[4.059021483109138,50.8547091564429],[4.066252359682057,50.8656429219844],[4.089545835872038,50.88894989559618]]]},"properties":{"postcode2":"94"}},
{"type":"Feature","geometry":{"type":"Polygon","coordinates":[[[3.9437876046334424,50.72907781129244],[4.0020019612138125,50.779098439167434],[3.921035477491703,50.82817543249578],[3.9487486819826696,50.8629179773084],[3.9375040888949435,50.87497730693837],[3.8928969273199754,50.91822855647664],[3.9375968915889277,50.94995426965603],[3.867909801964788,50.95419062898725],[3.847531877077471,50.95268121355777],[3.8291260094373145,50.91297659047234],[3.848077092904627,50.90262060116809],[3.8495503356716227,50.83785168505034],[3.7949900851668725,50.81031634901028],[3.814053305222749,50.78739122751377],[3.815627084241561,50.75061946858073],[3.8954954027515267,50.73293031928265],[3.9437876046334424,50.72907781129244]]]},"properties":{"postcode2":"95"}},
{"type":"Feature","geometry":{"type":"Polygon","coordinates":[[[3.848077092904627,50.90262060116809],[3.8291260094373145,50.91297659047234],[3.7556842774857393,50.913808268377856],[3.746918289683169,50.907830583431966],[3.6854133042452837,50.907730622145245],[3.6676145208949387,50.889357737645994],[3.6975859242728495,50.8622442382359],[3.672447994539938,50.82152600770313],[3.581489754098886,50.79936459043717],[3.5410123124062047,50.81119001065622],[3.5234648696854,50.80537226376908],[3.4590365993870194,50.76455607117532],[3.5407029700929247,50.7627827579489],[3.541213384909837,50.73336215204129],[3.6401951916015873,50.72238640275936],[3.677405205110249,50.77077766166081],[3.688479659925671,50.77368853433011],[3.7102186909914194,50.781879362164],[3.775818595301348,50.74781855332682],[3.815627084241561,50.75061946858073],[3.814053305222749,50.78739122751377],[3.7949900851668725,50.81031634901028],[3.8495503356716227,50.83785168505034],[3.848077092904627,50.90262060116809]]]},"properties":{"postcode2":"96"}},
{"type":"Feature","geometry":{"type":"Polygon","coordinates":[[[3.9280150134350813,51.07139523766716],[3.923343944504554,51.07612340652904],[3.843301620943368,51.05753060719901],[3.824837751619471,51.01948734069888],[3.8297562944006227,50.99364734808161],[3.827273822336551,50.974892611467084],[3.847531877077471,50.95268121355777],[3.867909801964788,50.95419062898725],[3.912652300801816,50.98355325734856],[4.006205149895504,50.985056675100836],[4.015431284389078,50.98721983734547],[4.072021593824728,50.98950695158564],[4.147207243067419,50.96926279179898],[4.16367585447066,50.988983154443225],[4.190654370967588,50.98261961893059],[4.229113354066117,50.99856344416253],[4.240953431106907,51.03677464562435],[4.190062753793439,51.03979547570904],[4.197324564597686,51.05783648873638],[4.175945143971126,51.10122168639886],[4.141569479407892,51.1051981463846],[4.131801995866078,51.12961469027898],[4.0120323857219145,51.13406896521525],[4.033937688281051,51.09498410210749],[3.9715858782605618,51.07391826054399],[3.9280150134350813,51.07139523766716]]]},"properties":{"postcode2":"92"}},
{"type":"Feature","geometry":{"type":"Polygon","coordinates":[[[3.790875832400249,51.21434787458057],[3.7953999637319686,51.256125694752576],[3.6869870832640954,51.28094408301957],[3.590886026864764,51.30431903030632],[3.5155921078124255,51.287199660342544],[3.4757410843041363,51.24278086297537],[3.3813723448591726,51.27454256221798],[3.3991904621040976,51.23720302317636],[3.3602829326513124,51.1918026059736],[3.4108294666412555,51.159950941572944],[3.5158086474317214,51.146985962685285],[3.5449061587746162,51.16237600238879],[3.608131860830121,51.17275998085332],[3.6456744173255586,51.169907085730316],[3.6588988012182764,51.087185122517546],[3.7675282213054455,51.13309534228259],[3.798532054653928,51.188999691493954],[3.76446959918289,51.191442745341405],[3.790875832400249,51.21434787458057]]]},"properties":{"postcode2":"99"}},
{"type":"Feature","geometry":{"type":"Polygon","coordinates":[[[3.76446959918289,51.191442745341405],[3.798532054653928,51.188999691493954],[3.7675282213054455,51.13309534228259],[3.6588988012182764,51.087185122517546],[3.6131432063052564,51.07670318199202],[3.6062062049299533,51.02849385263241],[3.652785423752081,51.0064803780708],[3.7109456454276275,50.97952881594519],[3.762810751027926,51.01847773170301],[3.7910807716827972,50.97519849300445],[3.827273822336551,50.974892611467084],[3.8297562944006227,50.99364734808161],[3.824837751619471,51.01948734069888],[3.843301620943368,51.05753060719901],[3.923343944504554,51.07612340652904],[3.8975641294715864,51.147435788475526],[3.849260327252923,51.14771168162687],[3.8357343346047577,51.18252819779166],[3.855918920546274,51.21108513818201],[3.790875832400249,51.21434787458057],[3.76446959918289,51.191442745341405]]]},"properties":{"postcode2":"90"}},
{"type":"Feature","geometry":{"type":"MultiPolygon","coordinates":[[[[3.652785423752081,51.0064803780708],[3.6062062049299533,51.02849385263241],[3.6073159704788456,50.98318340058769],[3.5420022078087006,50.95285114774519],[3.6266537318377576,50.928496579848584],[3.6854133042452837,50.907730622145245],[3.746918289683169,50.907830583431966],[3.7556842774857393,50.913808268377856],[3.8291260094373145,50.91297659047234],[3.847531877077471,50.95268121355777],[3.827273822336551,50.974892611467084],[3.7910807716827972,50.97519849300445],[3.762810751027926,51.01847773170301],[3.7109456454276275,50.97952881594519],[3.652785423752081,51.0064803780708]]],[[[3.4667778907768496,50.90200284041615],[3.5267013636380913,50.94776111902538],[3.4543345962251637,50.949362498838646],[3.424394127078581,50.926349411409824],[3.4197037242534742,50.910889398805615],[3.4667778907768496,50.90200284041615]]]]},"properties":{"postcode2":"98"}},
{"type":"Feature","geometry":{"type":"Polygon","coordinates":[[[3.918630341005951,51.20777641959155],[3.855918920546274,51.21108513818201],[3.8357343346047577,51.18252819779166],[3.849260327252923,51.14771168162687],[3.8975641294715864,51.147435788475526],[3.923343944504554,51.07612340652904],[3.9280150134350813,51.07139523766716],[3.9715858782605618,51.07391826054399],[4.033937688281051,51.09498410210749],[4.0120323857219145,51.13406896521525],[4.131801995866078,51.12961469027898],[4.141569479407892,51.1051981463846],[4.175945143971126,51.10122168639886],[4.285920203121063,51.12364300301029],[4.306773741815047,51.1248405392252],[4.322600467918233,51.13125205615546],[4.32992028040622,51.161620295061184],[4.329904813290556,51.18558301471384],[4.319456776659525,51.197440422544645],[4.3008073019476605,51.26243525117038],[4.24209026410821,51.3539618045175],[4.165887652010612,51.29289545445988],[4.070803558466189,51.250000067102334],[3.9776837886110927,51.225063724517014],[3.918630341005951,51.20777641959155]]]},"properties":{"postcode2":"91"}},
{"type":"Feature","geometry":{"type":"Polygon","coordinates":[[[3.672447994539938,50.82152600770313],[3.6975859242728495,50.8622442382359],[3.6676145208949387,50.889357737645994],[3.548649200765303,50.88005534030378],[3.471070015373609,50.878306017786166],[3.453248031349768,50.86606875706583],[3.5095096645775583,50.8135770861831],[3.5234648696854,50.80537226376908],[3.5410123124062047,50.81119001065622],[3.581489754098886,50.79936459043717],[3.672447994539938,50.82152600770313]]]},"properties":{"postcode2":"97"}},
{"type":"Feature","geometry":{"type":"MultiPolygon","coordinates":[[[[3.713992667213435,50.562412357943174],[3.7870283873788297,50.61333463662439],[3.820746699526344,50.60447806662094],[3.895046856397271,50.62283095886284],[3.881520863749105,50.675928395143096],[3.758093280750407,50.695764712879935],[3.7450235680143296,50.72938969050701],[3.775818595301348,50.74781855332682],[3.7102186909914194,50.781879362164],[3.688479659925671,50.77368853433011],[3.677405205110249,50.77077766166081],[3.6401951916015873,50.72238640275936],[3.7245335065384486,50.68680818158977],[3.655128691775177,50.6455961423006],[3.7022956609925366,50.58037939961834],[3.713992667213435,50.562412357943174]]],[[[3.835892872540313,50.582004770140415],[3.826705405835899,50.550405008182295],[3.9755222591970494,50.547192252427095],[3.961810661160915,50.59009563668758],[3.9042884580065094,50.61551179344916],[3.835892872540313,50.582004770140415]]]]},"properties":{"postcode2":"78"}},
{"type":"Feature","geometry":{"type":"Polygon","coordinates":[[[3.7022956609925366,50.58037939961834],[3.655128691775177,50.6455961423006],[3.7245335065384486,50.68680818158977],[3.6401951916015873,50.72238640275936],[3.541213384909837,50.73336215204129],[3.487376222062378,50.703549697889734],[3.529091033008179,50.66043039724993],[3.5602456707343855,50.62742717882626],[3.549233084381619,50.57870604767863],[3.61669677612906,50.56135876598114],[3.6235719090417065,50.51180795615373],[3.736238246317179,50.49609204265552],[3.755224130794735,50.53107249533053],[3.8073715112559023,50.53987508623914],[3.826705405835899,50.550405008182295],[3.835892872540313,50.582004770140415],[3.9042884580065094,50.61551179344916],[3.895046856397271,50.62283095886284],[3.820746699526344,50.60447806662094],[3.7870283873788297,50.61333463662439],[3.713992667213435,50.562412357943174],[3.7022956609925366,50.58037939961834]]]},"properties":{"postcode2":"79"}},
{"type":"Feature","geometry":{"type":"Polygon","coordinates":[[[3.6235719090417065,50.51180795615373],[3.6151423310048276,50.49039624853818],[3.655190560237833,50.46193327175735],[3.6721425190055736,50.4221686718999],[3.6685116136034503,50.384179384494594],[3.67340308893219,50.33508839658611],[3.838023467723029,50.354216988412965],[3.8437308334030442,50.353293346123664],[3.8418863798601124,50.38318377007886],[3.8693482437215394,50.41130288003337],[3.8837094606155613,50.42061727272999],[3.8704077411445237,50.4561555093849],[3.87944827025013,50.50365111515733],[3.8073715112559023,50.53987508623914],[3.755224130794735,50.53107249533053],[3.736238246317179,50.49609204265552],[3.6235719090417065,50.51180795615373]]]},"properties":{"postcode2":"73"}},
{"type":"Feature","geometry":{"type":"MultiPolygon","coordinates":[[[[4.322751272295957,50.4448378925024],[4.286875297513315,50.506989822133804],[4.2815546097249,50.49630795903484],[4.267502735144158,50.471621519666314],[4.263025005159431,50.42534744081761],[4.293847099898862,50.4248936165759],[4.322751272295957,50.4448378925024]]],[[[4.123449753407519,50.56467148302306],[4.130796633347918,50.544991104893505],[4.186184374540693,50.524916879294274],[4.226054731943561,50.58286643643194],[4.123449753407519,50.56467148302306]]]]},"properties":{"postcode2":"71"}},
{"type":"Feature","geometry":{"type":"Polygon","coordinates":[[[4.502019009620601,50.43811249713183],[4.48537639316614,50.47633369472233],[4.456456753653381,50.4917857104236],[4.400048182826783,50.4702260601037],[4.348256546025889,50.429657771501006],[4.356253044824175,50.40450551253637],[4.4162886542739805,50.3591690705571],[4.458854156581301,50.36198797884262],[4.485875207646304,50.378097739810514],[4.502019009620601,50.43811249713183]]]},"properties":{"postcode2":"60"}},
{"type":"Feature","geometry":{"type":"Polygon","coordinates":[[[4.485875207646304,50.378097739810514],[4.458854156581301,50.36198797884262],[4.475110095144162,50.32756531014751],[4.517973339428014,50.31517610827136],[4.588615523444407,50.32122776456943],[4.584261530384991,50.36394921928808],[4.5938124743075095,50.37436918381584],[4.608053821055135,50.40874786954479],[4.57814428613988,50.43846835931256],[4.572831331909297,50.442036977248485],[4.592068557016393,50.484236634050454],[4.577479200166328,50.54240010834171],[4.502676362036321,50.52851748484195],[4.469569000957535,50.55892570826236],[4.382191397792698,50.56395775943587],[4.377226453664555,50.55921359676812],[4.325342014169676,50.5492434580306],[4.310106905240639,50.5238492927521],[4.400048182826783,50.4702260601037],[4.456456753653381,50.4917857104236],[4.48537639316614,50.47633369472233],[4.502019009620601,50.43811249713183],[4.485875207646304,50.378097739810514]]]},"properties":{"postcode2":"62"}},
{"type":"Feature","geometry":{"type":"Polygon","coordinates":[[[4.322751272295957,50.4448378925024],[4.293847099898862,50.4248936165759],[4.263025005159431,50.42534744081761],[4.252375896024769,50.42343818024125],[4.242589078588375,50.38095463338499],[4.293135612578318,50.38882558510137],[4.304186866720244,50.36937311870554],[4.336489937784502,50.373893368091046],[4.394248014452784,50.35538053779039],[4.369539297179548,50.291793164081675],[4.475110095144162,50.32756531014751],[4.458854156581301,50.36198797884262],[4.4162886542739805,50.3591690705571],[4.356253044824175,50.40450551253637],[4.348256546025889,50.429657771501006],[4.400048182826783,50.4702260601037],[4.310106905240639,50.5238492927521],[4.286875297513315,50.506989822133804],[4.322751272295957,50.4448378925024]]]},"properties":{"postcode2":"61"}},
{"type":"Feature","geometry":{"type":"Polygon","coordinates":[[[3.8437308334030442,50.353293346123664],[3.862446043356481,50.34388299059179],[3.9100692924859284,50.32889079680943],[4.027963514855832,50.358473340001524],[4.04097522590817,50.400984876018065],[4.058665739448866,50.430455462569036],[4.075729834805172,50.4404635865955],[4.0755790304274475,50.46537993692348],[4.186184374540693,50.524916879294274],[4.130796633347918,50.544991104893505],[4.123449753407519,50.56467148302306],[4.226054731943561,50.58286643643194],[4.24702040722611,50.59641319000832],[4.2534701944579965,50.61587565253282],[4.199095549341214,50.65235552450864],[4.177259848802565,50.663475218043445],[4.091950972357789,50.669005076424824],[4.066797575509213,50.65423479669899],[4.026412936510516,50.63372074143818],[3.961810661160915,50.59009563668758],[3.9755222591970494,50.547192252427095],[3.826705405835899,50.550405008182295],[3.8073715112559023,50.53987508623914],[3.87944827025013,50.50365111515733],[3.8704077411445237,50.4561555093849],[3.8837094606155613,50.42061727272999],[3.8693482437215394,50.41130288003337],[3.8418863798601124,50.38318377007886],[3.8437308334030442,50.353293346123664]]]},"properties":{"postcode2":"70"}},
{"type":"Feature","geometry":{"type":"MultiPolygon","coordinates":[[[[4.308854068871855,50.26734063412408],[4.369539297179548,50.291793164081675],[4.394248014452784,50.35538053779039],[4.336489937784502,50.373893368091046],[4.304186866720244,50.36937311870554],[4.293135612578318,50.38882558510137],[4.242589078588375,50.38095463338499],[4.185677826502697,50.35098623962615],[4.179935659812438,50.36260374036882],[4.132586951986026,50.33048817817122],[4.042904748587254,50.34000649189276],[4.204161029721173,50.274130004718145],[4.16533856940454,50.214511094092245],[4.284752435888431,50.15888663648369],[4.290742076429314,50.204213082334284],[4.344896315147885,50.22748606910858],[4.308854068871855,50.26734063412408]]],[[[4.221839942925122,50.06272387865847],[4.135939449306197,50.020826104942394],[4.195019964363751,49.95614315553122],[4.305776112854719,49.968112520003146],[4.314418363731978,49.99564185836601],[4.237059584738495,50.01836705728907],[4.221839942925122,50.06272387865847]]]]},"properties":{"postcode2":"65"}},
{"type":"Feature","geometry":{"type":"Polygon","coordinates":[[[4.432741798561557,49.9417627248236],[4.386506723062953,50.106938755000726],[4.400504462738871,50.12283459881504],[4.393780134203948,50.23317786477445],[4.344896315147885,50.22748606910858],[4.290742076429314,50.204213082334284],[4.284752435888431,50.15888663648369],[4.16533856940454,50.214511094092245],[4.132014668706458,50.13210900699698],[4.2020033670860455,50.12368426975216],[4.221839942925122,50.06272387865847],[4.237059584738495,50.01836705728907],[4.314418363731978,49.99564185836601],[4.305776112854719,49.968112520003146],[4.432741798561557,49.9417627248236]]]},"properties":{"postcode2":"64"}},
{"type":"Feature","geometry":{"type":"Polygon","coordinates":[[[3.408285126114528,50.5636398825441],[3.361133624012832,50.55541506787273],[3.28099076419983,50.55588888437179],[3.328103598512366,50.51264963018792],[3.3920601217829947,50.49848711508535],[3.4695581048174535,50.53209010122934],[3.499347769586312,50.52994093356485],[3.5228384515010083,50.495466285000646],[3.6151423310048276,50.49039624853818],[3.6235719090417065,50.51180795615373],[3.61669677612906,50.56135876598114],[3.549233084381619,50.57870604767863],[3.5201665072700523,50.560229203441196],[3.43073564450082,50.586365081467164],[3.408285126114528,50.5636398825441]]]},"properties":{"postcode2":"76"}},
{"type":"Feature","geometry":{"type":"Polygon","coordinates":[[[3.403161644050829,50.741570972906786],[3.3652788110107834,50.72132281466866],[3.323900409830675,50.72238640275936],[3.245234659563584,50.7131219907061],[3.246278689870904,50.652619422305584],[3.3363862389504364,50.65866508092645],[3.3990976594101134,50.67770570682099],[3.529091033008179,50.66043039724993],[3.487376222062378,50.703549697889734],[3.541213384909837,50.73336215204129],[3.5407029700929247,50.7627827579489],[3.4590365993870194,50.76455607117532],[3.45341043606424,50.75810656895611],[3.403161644050829,50.741570972906786]]]},"properties":{"postcode2":"77"}},
{"type":"Feature","geometry":{"type":"Polygon","coordinates":[[[3.529091033008179,50.66043039724993],[3.3990976594101134,50.67770570682099],[3.3363862389504364,50.65866508092645],[3.246278689870904,50.652619422305584],[3.28099076419983,50.55588888437179],[3.361133624012832,50.55541506787273],[3.408285126114528,50.5636398825441],[3.43073564450082,50.586365081467164],[3.5201665072700523,50.560229203441196],[3.549233084381619,50.57870604767863],[3.5602456707343855,50.62742717882626],[3.529091033008179,50.66043039724993]]]},"properties":{"postcode2":"75"}},
{"type":"Feature","geometry":{"type":"Polygon","coordinates":[[[5.326149466766454,50.5919849050066],[5.349547345987165,50.63331689783983],[5.281205895425794,50.63719739499033],[5.259397262339557,50.61601159988276],[5.19655050461782,50.62692137471545],[5.208228176944138,50.575105442130955],[5.167070182162242,50.57895795012117],[5.133208799194835,50.56281420231579],[5.142291862868518,50.51220980052635],[5.144522994303049,50.508635184913224],[5.164030893934266,50.467687043420995],[5.196983583856412,50.47908263010714],[5.237163283572562,50.4270547795948],[5.2210040144826,50.41720859285282],[5.346299251697726,50.38654846698987],[5.392913271530098,50.379497197824605],[5.421805843590445,50.43049544708372],[5.513015424661037,50.425117529858156],[5.504740517780799,50.46055980367781],[5.44047465219689,50.48134575363849],[5.445342926852133,50.49435271626658],[5.476853308238612,50.52158217076927],[5.44070665893185,50.541620410305285],[5.343306364816742,50.53560074161897],[5.346117513088674,50.560731009100536],[5.326149466766454,50.5919849050066]]]},"properties":{"postcode2":"45"}},
{"type":"Feature","geometry":{"type":"Polygon","coordinates":[[[5.051047480787682,50.555263126716916],[5.034691005973004,50.53186618794709],[5.142291862868518,50.51220980052635],[5.133208799194835,50.56281420231579],[5.167070182162242,50.57895795012117],[5.208228176944138,50.575105442130955],[5.19655050461782,50.62692137471545],[5.1957036800352165,50.643774847656545],[5.2267693818463545,50.67012464283609],[5.213622333531957,50.68350945912798],[5.2287955739983385,50.717804177376095],[5.16447170673069,50.69548482127711],[5.148780317889564,50.69535487160438],[5.103453935436221,50.709177518332105],[5.0564648380489965,50.71563701667999],[5.019436563149387,50.75073142522186],[4.992635918482596,50.72359393510295],[5.017232499167267,50.70257607495707],[4.9881427213822045,50.645314251472044],[4.983514187019754,50.64225343687266],[4.9793806003585495,50.618546618113996],[5.028627896632718,50.58861421041838],[5.051047480787682,50.555263126716916]]]},"properties":{"postcode2":"42"}},
{"type":"Feature","geometry":{"type":"Polygon","coordinates":[[[5.675458806922169,50.36833152209791],[5.702692530827552,50.40385576417268],[5.623933977866478,50.46027391439779],[5.631126186650237,50.48701155936982],[5.670466795341614,50.47660758864794],[5.7632269547575214,50.521328269101005],[5.752307171098739,50.53902141685055],[5.755207255285739,50.54681839721476],[5.67480918806428,50.55060293153],[5.614912782655452,50.55102676738569],[5.600056618060182,50.58108712552832],[5.5525880400873735,50.56093692935118],[5.530199390163737,50.61242099046376],[5.508050480532894,50.62854074756032],[5.476157288033732,50.62125756820986],[5.483763242161502,50.57158680483839],[5.429017386268784,50.564509545738574],[5.44070665893185,50.541620410305285],[5.476853308238612,50.52158217076927],[5.445342926852133,50.49435271626658],[5.44047465219689,50.48134575363849],[5.504740517780799,50.46055980367781],[5.513015424661037,50.425117529858156],[5.52020376666588,50.407722266743036],[5.630708574527309,50.37215404170211],[5.675458806922169,50.36833152209791]]]},"properties":{"postcode2":"41"}},
{"type":"Feature","geometry":{"type":"Polygon","coordinates":[[[5.343306364816742,50.53560074161897],[5.44070665893185,50.541620410305285],[5.429017386268784,50.564509545738574],[5.483763242161502,50.57158680483839],[5.476157288033732,50.62125756820986],[5.508050480532894,50.62854074756032],[5.530199390163737,50.61242099046376],[5.523467328070984,50.649272718426175],[5.536432637776329,50.67856737311252],[5.564841862472176,50.68231192291307],[5.593274287841519,50.701474501577415],[5.592976545864987,50.73398790969616],[5.524232950296351,50.742286695719706],[5.478968436305663,50.72374587625877],[5.484845940257982,50.713247941927364],[5.487788559013057,50.66030044757719],[5.440377982723989,50.6607482741417],[5.373525242045277,50.64639983104583],[5.349547345987165,50.63331689783983],[5.326149466766454,50.5919849050066],[5.346117513088674,50.560731009100536],[5.343306364816742,50.53560074161897]]]},"properties":{"postcode2":"44"}},
{"type":"Feature","geometry":{"type":"Polygon","coordinates":[[[5.484845940257982,50.713247941927364],[5.478968436305663,50.72374587625877],[5.435656645667555,50.7220165459985],[5.431774399635891,50.71967945111497],[5.416144879257422,50.722906201450314],[5.394575986463978,50.734725623992155],[5.389506639305102,50.74805846041495],[5.309209108335461,50.718128051945065],[5.237012479194837,50.727234525165315],[5.2287955739983385,50.717804177376095],[5.213622333531957,50.68350945912798],[5.2267693818463545,50.67012464283609],[5.1957036800352165,50.643774847656545],[5.19655050461782,50.62692137471545],[5.259397262339557,50.61601159988276],[5.281205895425794,50.63719739499033],[5.349547345987165,50.63331689783983],[5.373525242045277,50.64639983104583],[5.440377982723989,50.6607482741417],[5.487788559013057,50.66030044757719],[5.484845940257982,50.713247941927364]]]},"properties":{"postcode2":"43"}},
{"type":"Feature","geometry":{"type":"Polygon","coordinates":[[[5.702692530827552,50.40385576417268],[5.675458806922169,50.36833152209791],[5.720398511483912,50.35808349098332],[5.74803438039656,50.30245703414903],[5.721071331015297,50.26219462708371],[5.870321263615039,50.26841221911773],[5.850527222344038,50.326817599722844],[5.865565125548359,50.34584623026298],[5.980141651608335,50.3298244352274],[5.995910376027781,50.33553622315061],[6.02189126356438,50.35059439138221],[6.069769720102284,50.350610385188084],[6.113800731618769,50.38009696554493],[6.181670435152388,50.4046874420782],[6.151250485420222,50.425335445463205],[6.153087205405321,50.514077077362295],[6.207164108545572,50.52201400352791],[6.2344132995666195,50.56477744198698],[6.234421033124452,50.565013350623644],[6.189411726542219,50.565966981298956],[6.137581421952165,50.548017932655405],[6.073207286558608,50.519552956648845],[6.062890720410721,50.518991174217476],[6.005279581341247,50.49632395284071],[5.931868783621001,50.46648550875461],[5.879180054111593,50.51014260111697],[5.909275194414816,50.56765632704454],[5.8548618815088735,50.561008901477614],[5.752307171098739,50.53902141685055],[5.7632269547575214,50.521328269101005],[5.670466795341614,50.47660758864794],[5.631126186650237,50.48701155936982],[5.623933977866478,50.46027391439779],[5.702692530827552,50.40385576417268]]]},"properties":{"postcode2":"49"}},
{"type":"Feature","geometry":{"type":"Polygon","coordinates":[[[5.592976545864987,50.73398790969616],[5.593274287841519,50.701474501577415],[5.652436005256309,50.681376285269366],[5.659017262971339,50.68415121058873],[5.673962363481677,50.67116823866946],[5.653831912444984,50.648610974708085],[5.640305919796819,50.61506196765892],[5.645943683456346,50.61167727849056],[5.68018401075752,50.592784595300365],[5.700117256069497,50.59540558023818],[5.696447682878214,50.60066754237115],[5.763721902458769,50.6022509291528],[5.767708551521165,50.5950817056692],[5.820200075305856,50.60036965773672],[5.84304500514158,50.622391129201276],[5.8603720414641725,50.62644156053919],[5.836204673239177,50.6846550154738],[5.798480378134688,50.70245012373581],[5.818753899991272,50.714303533115135],[5.768930453658621,50.75122323475252],[5.7224015029624,50.74560341121309],[5.682117400215519,50.757456820592424],[5.698845085806132,50.779574254892225],[5.687871167242527,50.811971707918374],[5.6872679497316305,50.80414873761962],[5.553133255914529,50.764064261644656],[5.524232950296351,50.742286695719706],[5.592976545864987,50.73398790969616]]]},"properties":{"postcode2":"46"}},
{"type":"Feature","geometry":{"type":"Polygon","coordinates":[[[5.640305919796819,50.61506196765892],[5.653831912444984,50.648610974708085],[5.673962363481677,50.67116823866946],[5.659017262971339,50.68415121058873],[5.652436005256309,50.681376285269366],[5.593274287841519,50.701474501577415],[5.564841862472176,50.68231192291307],[5.536432637776329,50.67856737311252],[5.523467328070984,50.649272718426175],[5.530199390163737,50.61242099046376],[5.5525880400873735,50.56093692935118],[5.600056618060182,50.58108712552832],[5.614912782655452,50.55102676738569],[5.67480918806428,50.55060293153],[5.68018401075752,50.592784595300365],[5.645943683456346,50.61167727849056],[5.640305919796819,50.61506196765892]]]},"properties":{"postcode2":"40"}},
{"type":"Feature","geometry":{"type":"Polygon","coordinates":[[[5.67480918806428,50.55060293153],[5.755207255285739,50.54681839721476],[5.752307171098739,50.53902141685055],[5.8548618815088735,50.561008901477614],[5.909275194414816,50.56765632704454],[5.879180054111593,50.51014260111697],[5.931868783621001,50.46648550875461],[6.005279581341247,50.49632395284071],[6.062890720410721,50.518991174217476],[6.073207286558608,50.519552956648845],[6.137581421952165,50.548017932655405],[6.1025948063202025,50.59269463014231],[6.001807213874679,50.626909379361045],[6.000314637213104,50.64995245517588],[5.967048738198762,50.69503299626114],[5.981858501447039,50.70266004243792],[6.0211952433595,50.75432003541513],[5.892068028238619,50.75513372028904],[5.883321374330628,50.70991923107957],[5.818753899991272,50.714303533115135],[5.798480378134688,50.70245012373581],[5.836204673239177,50.6846550154738],[5.8603720414641725,50.62644156053919],[5.84304500514158,50.622391129201276],[5.820200075305856,50.60036965773672],[5.767708551521165,50.5950817056692],[5.763721902458769,50.6022509291528],[5.696447682878214,50.60066754237115],[5.700117256069497,50.59540558023818],[5.68018401075752,50.592784595300365],[5.67480918806428,50.55060293153]]]},"properties":{"postcode2":"48"}},
{"type":"Feature","geometry":{"type":"MultiPolygon","coordinates":[[[[6.069769720102284,50.350610385188084],[6.02189126356438,50.35059439138221],[5.995910376027781,50.33553622315061],[5.980141651608335,50.3298244352274],[6.012436989114763,50.264571706481924],[6.01248725724067,50.24415961173357],[6.024744946404388,50.1827473956239],[6.1194500956150435,50.16330492535674],[6.187056858182375,50.17910880478727],[6.173534732313126,50.23177840676036],[6.2765225219618515,50.26643498486639],[6.307928500317598,50.310773813204186],[6.405676804535146,50.323332949267765],[6.3431200552321085,50.38067674100791],[6.377263713060382,50.44133125056424],[6.341712547706685,50.483482925948586],[6.285172506396942,50.498912950166776],[6.207164108545572,50.52201400352791],[6.153087205405321,50.514077077362295],[6.151250485420222,50.425335445463205],[6.181670435152388,50.4046874420782],[6.113800731618769,50.38009696554493],[6.069769720102284,50.350610385188084]]],[[[6.137581421952165,50.548017932655405],[6.189411726542219,50.565966981298956],[6.234421033124452,50.565013350623644],[6.2344132995666195,50.56477744198698],[6.269303245725681,50.625212036712526],[6.234943048278112,50.626243637191486],[6.246896877140626,50.640651472679295],[6.185831089266004,50.64126382013412],[6.114670756874869,50.72233842134174],[6.060713723881014,50.72360992890882],[6.0211952433595,50.75432003541513],[5.981858501447039,50.70266004243792],[5.967048738198762,50.69503299626114],[6.000314637213104,50.64995245517588],[6.001807213874679,50.626909379361045],[6.1025948063202025,50.59269463014231],[6.137581421952165,50.548017932655405]]]]},"properties":{"postcode2":"47"}},
{"type":"Feature","geometry":{"type":"Polygon","coordinates":[[[5.5288034829750625,51.01892355904178],[5.5183941141331925,51.01878961091757],[5.46556618058281,51.00102649026732],[5.401257780430825,50.9674454956064],[5.414961644909126,50.94359473259487],[5.479099906788807,50.9225948654806],[5.528111329549098,50.914050174691724],[5.588514282995924,50.90061937620794],[5.614916649434367,50.83864337844116],[5.645587939796074,50.83712396688301],[5.65123730379235,50.87502928680747],[5.724114486022188,50.910511545141816],[5.765891165430645,51.00873550469922],[5.797552351194847,51.07360838055516],[5.814071230723997,51.12086407923945],[5.824422597882126,51.16771993277687],[5.767294806177153,51.18359978278531],[5.657880429970035,51.184853297320785],[5.718461255246997,51.12698770766396],[5.6629265764554155,51.10246320557992],[5.607531101704808,51.03757233669238],[5.5288034829750625,51.01892355904178]]]},"properties":{"postcode2":"36"}},
{"type":"Feature","geometry":{"type":"Polygon","coordinates":[[[5.159719435442927,51.024147535885795],[5.12460134932782,50.997807736834915],[5.042146155723051,50.9427950423011],[5.045456118475147,50.93233509325866],[5.092016003402694,50.90903811577555],[5.132590114568275,50.921591254161925],[5.18670181871877,50.89369805671541],[5.228130488024787,50.91024564811914],[5.249355237494707,50.89418986624607],[5.242696644201356,50.86695241484044],[5.264733417243637,50.85444525864596],[5.352176755650046,50.86750020269167],[5.352559566762729,50.867498203465935],[5.3667313114898665,50.883512001598575],[5.4491865050946355,50.876606675911916],[5.440234911904097,50.888316141038366],[5.479099906788807,50.9225948654806],[5.414961644909126,50.94359473259487],[5.401257780430825,50.9674454956064],[5.46556618058281,51.00102649026732],[5.5183941141331925,51.01878961091757],[5.45449945932522,51.05499159051631],[5.396192300050865,51.103922640366044],[5.341956858975059,51.09513404403757],[5.300876199771482,51.10590987074605],[5.205420895451123,51.100701887707906],[5.1837746670793585,51.07712901707345],[5.121562061099845,51.04765243284528],[5.159719435442927,51.024147535885795]]]},"properties":{"postcode2":"35"}},
{"type":"Feature","geometry":{"type":"Polygon","coordinates":[[[5.103453935436221,50.709177518332105],[5.148780317889564,50.69535487160438],[5.16447170673069,50.69548482127711],[5.2287955739983385,50.717804177376095],[5.237012479194837,50.727234525165315],[5.309209108335461,50.718128051945065],[5.389506639305102,50.74805846041495],[5.389216630886402,50.76989200466046],[5.403894923651536,50.80939070749525],[5.372384542265058,50.842649826812924],[5.352559566762729,50.867498203465935],[5.352176755650046,50.86750020269167],[5.264733417243637,50.85444525864596],[5.242696644201356,50.86695241484044],[5.249355237494707,50.89418986624607],[5.228130488024787,50.91024564811914],[5.18670181871877,50.89369805671541],[5.150357963687292,50.857883926909146],[5.148440041344957,50.85813383012595],[5.106477756548532,50.77915641671373],[5.116972194526554,50.76414023222256],[5.103453935436221,50.709177518332105]]]},"properties":{"postcode2":"38"}},
{"type":"Feature","geometry":{"type":"Polygon","coordinates":[[[5.230361619459318,51.133973002379996],[5.1304092512596515,51.116637716036905],[5.100314110956429,51.09381655427859],[5.094776883548718,51.08530984877867],[5.010883248187197,51.073940252027064],[4.98142999318403,51.034951351754565],[5.022077573149015,51.02002113396997],[5.121562061099845,51.04765243284528],[5.1837746670793585,51.07712901707345],[5.205420895451123,51.100701887707906],[5.300876199771482,51.10590987074605],[5.341956858975059,51.09513404403757],[5.396192300050865,51.103922640366044],[5.45449945932522,51.05499159051631],[5.475770610142131,51.106043818870255],[5.532380253472361,51.14630622593558],[5.546660268009147,51.130502346505054],[5.570015612661783,51.1074872598505],[5.6629265764554155,51.10246320557992],[5.718461255246997,51.12698770766396],[5.657880429970035,51.184853297320785],[5.560240395562136,51.22290056227238],[5.5563233485202295,51.26635973128703],[5.487398014342542,51.29977878866347],[5.43838659158225,51.27603598384159],[5.524812967133752,51.21471373288996],[5.477348255939859,51.188124030622284],[5.436325598420023,51.17023495875076],[5.320183026899066,51.18120271112975],[5.417533052888266,51.26222533246827],[5.237778101420205,51.26132368166205],[5.217102434556357,51.21141501042818],[5.261349985692137,51.15841553620892],[5.261129579293925,51.14702794642571],[5.230361619459318,51.133973002379996]]]},"properties":{"postcode2":"39"}},
{"type":"Feature","geometry":{"type":"MultiPolygon","coordinates":[[[[5.440234911904097,50.888316141038366],[5.4491865050946355,50.876606675911916],[5.3667313114898665,50.883512001598575],[5.352559566762729,50.867498203465935],[5.372384542265058,50.842649826812924],[5.403894923651536,50.80939070749525],[5.389216630886402,50.76989200466046],[5.389506639305102,50.74805846041495],[5.394575986463978,50.734725623992155],[5.416144879257422,50.722906201450314],[5.431774399635891,50.71967945111497],[5.435656645667555,50.7220165459985],[5.478968436305663,50.72374587625877],[5.524232950296351,50.742286695719706],[5.553133255914529,50.764064261644656],[5.6872679497316305,50.80414873761962],[5.687871167242527,50.811971707918374],[5.645587939796074,50.83712396688301],[5.614916649434367,50.83864337844116],[5.588514282995924,50.90061937620794],[5.528111329549098,50.914050174691724],[5.479099906788807,50.9225948654806],[5.440234911904097,50.888316141038366]]],[[[5.818753899991272,50.714303533115135],[5.883321374330628,50.70991923107957],[5.892068028238619,50.75513372028904],[5.807404903872814,50.75621130295988],[5.77676068096352,50.78221723131312],[5.682117400215519,50.757456820592424],[5.7224015029624,50.74560341121309],[5.768930453658621,50.75122323475252],[5.818753899991272,50.714303533115135]]]]},"properties":{"postcode2":"37"}},
{"type":"Feature","geometry":{"type":"Polygon","coordinates":[[[5.826212916520234,49.723571226621324],[5.832171622829789,49.746754248237565],[5.755048717350183,49.791388961984055],[5.711783328059067,49.775295194822036],[5.684576671606095,49.782494406691654],[5.566605113657872,49.76457534643412],[5.500958808000951,49.73439503474743],[5.4397902323287575,49.78316414731268],[5.48149344293781,49.703972816746884],[5.416450354791786,49.660927487459254],[5.416512223254442,49.62959962020102],[5.375953579204525,49.623086142758304],[5.457005132062787,49.56704184774553],[5.4657633863075255,49.508814398230776],[5.533447484453177,49.513358638325094],[5.6354608458150715,49.544776470741375],[5.734121709856795,49.54552817961752],[5.812269311749141,49.547407451807864],[5.848555165096879,49.5972561462697],[5.8800500793676935,49.62342201268169],[5.88688654449118,49.70925077268573],[5.826212916520234,49.723571226621324]]]},"properties":{"postcode2":"67"}},
{"type":"Feature","geometry":{"type":"Polygon","coordinates":[[[5.755048717350183,49.791388961984055],[5.7463445980102685,49.85415265469019],[5.747945444481492,49.90943324547242],[5.775063165019395,49.96084133600709],[5.838667811408668,49.98235100568363],[5.85660579879999,50.06162830295601],[5.894863709394887,50.11215473494181],[5.961298837950671,50.13142727102154],[5.96416025434851,50.1714997516421],[6.024744946404388,50.1827473956239],[6.01248725724067,50.24415961173357],[6.012436989114763,50.264571706481924],[5.980141651608335,50.3298244352274],[5.865565125548359,50.34584623026298],[5.850527222344038,50.326817599722844],[5.870321263615039,50.26841221911773],[5.721071331015297,50.26219462708371],[5.709552196624535,50.230526891450616],[5.7425706217882535,50.192875473194434],[5.656689462063908,50.16823901446927],[5.6779219450916605,50.11483769587739],[5.597288004356326,50.09626888725617],[5.542155470572008,50.06765596854527],[5.465976059147906,50.072684021267314],[5.417857862317209,50.04892922109102],[5.460353762604042,50.02527438220146],[5.549452082386498,49.96624324394148],[5.495185707079364,49.90295175564145],[5.529387366591378,49.87009448069639],[5.656592792591008,49.90029478464042],[5.634064938626397,49.831721341950086],[5.70065473833882,49.820519680160174],[5.684576671606095,49.782494406691654],[5.711783328059067,49.775295194822036],[5.755048717350183,49.791388961984055]]]},"properties":{"postcode2":"66"}},
{"type":"Feature","geometry":{"type":"Polygon","coordinates":[[[5.392913271530098,50.379497197824605],[5.38661042189702,50.3166655314435],[5.375547567418344,50.27855629049414],[5.25493886624941,50.23992125317662],[5.218637545786009,50.22358557970074],[5.280660679598638,50.158796671325646],[5.263438046306776,50.1086221030691],[5.152828835414615,50.094485577901075],[5.065578835954007,50.12281660578343],[5.0607956304349155,50.08036904499039],[5.011103654585408,50.03794547490617],[4.9728689446640075,50.02890097768368],[4.9904357212793915,50.016227885753246],[5.026118357116234,49.97782076016946],[5.0997495612346935,49.961471092113435],[5.134883114465463,49.9899540611516],[5.137934003030186,50.03858122868971],[5.178055701062595,50.04518667051621],[5.230647761099102,50.03103615076804],[5.316656524527675,50.08564900015497],[5.390179458836487,50.078607727118374],[5.417857862317209,50.04892922109102],[5.465976059147906,50.072684021267314],[5.542155470572008,50.06765596854527],[5.597288004356326,50.09626888725617],[5.6779219450916605,50.11483769587739],[5.656689462063908,50.16823901446927],[5.7425706217882535,50.192875473194434],[5.709552196624535,50.230526891450616],[5.721071331015297,50.26219462708371],[5.74803438039656,50.30245703414903],[5.720398511483912,50.35808349098332],[5.675458806922169,50.36833152209791],[5.630708574527309,50.37215404170211],[5.52020376666588,50.407722266743036],[5.513015424661037,50.425117529858156],[5.421805843590445,50.43049544708372],[5.392913271530098,50.379497197824605]]]},"properties":{"postcode2":"69"}},
{"type":"Feature","geometry":{"type":"Polygon","coordinates":[[[5.153385651578519,49.71882306550209],[5.1664514975356814,49.693103026428886],[5.268445525002996,49.696609668367046],[5.375953579204525,49.623086142758304],[5.416512223254442,49.62959962020102],[5.416450354791786,49.660927487459254],[5.48149344293781,49.703972816746884],[5.4397902323287575,49.78316414731268],[5.500958808000951,49.73439503474743],[5.566605113657872,49.76457534643412],[5.684576671606095,49.782494406691654],[5.70065473833882,49.820519680160174],[5.634064938626397,49.831721341950086],[5.656592792591008,49.90029478464042],[5.529387366591378,49.87009448069639],[5.495185707079364,49.90295175564145],[5.549452082386498,49.96624324394148],[5.460353762604042,50.02527438220146],[5.417857862317209,50.04892922109102],[5.390179458836487,50.078607727118374],[5.316656524527675,50.08564900015497],[5.230647761099102,50.03103615076804],[5.178055701062595,50.04518667051621],[5.137934003030186,50.03858122868971],[5.134883114465463,49.9899540611516],[5.0997495612346935,49.961471092113435],[5.109404908187944,49.9281859828612],[5.0473083055759105,49.87850322413533],[4.981016247840017,49.84281104709887],[4.968839761033536,49.801585013229555],[5.09553863899517,49.76097474088644],[5.153385651578519,49.71882306550209]]]},"properties":{"postcode2":"68"}},
{"type":"Feature","geometry":{"type":"Polygon","coordinates":[[[4.756615467007829,50.34355311834561],[4.7576208295259885,50.28232882945497],[4.7530116290581175,50.2752255804206],[4.7707021425988145,50.215602671343234],[4.781181113461173,50.20109029173713],[4.796222883444409,50.14835471531481],[4.871563203843741,50.15374062944332],[4.877618579626196,50.15371264028303],[4.841309525604962,50.042813589569455],[4.790747524499356,49.96114721754446],[4.87589399622966,49.924725323114934],[4.8518078303619,49.85269321990407],[4.856069020727332,49.79216266234327],[4.968839761033536,49.801585013229555],[4.981016247840017,49.84281104709887],[5.0473083055759105,49.87850322413533],[5.109404908187944,49.9281859828612],[5.0997495612346935,49.961471092113435],[5.026118357116234,49.97782076016946],[4.9904357212793915,50.016227885753246],[4.9728689446640075,50.02890097768368],[5.011103654585408,50.03794547490617],[5.0607956304349155,50.08036904499039],[5.065578835954007,50.12281660578343],[5.152828835414615,50.094485577901075],[5.263438046306776,50.1086221030691],[5.280660679598638,50.158796671325646],[5.218637545786009,50.22358557970074],[5.25493886624941,50.23992125317662],[5.213773137909682,50.290541648771935],[5.033867382063896,50.34037434942789],[5.022746525901482,50.332845265312095],[4.916143297966297,50.34242355580567],[4.895494698554861,50.3641131557983],[4.861915590448323,50.35097624349748],[4.756615467007829,50.34355311834561]]]},"properties":{"postcode2":"55"}},
{"type":"Feature","geometry":{"type":"Polygon","coordinates":[[[5.213773137909682,50.290541648771935],[5.25493886624941,50.23992125317662],[5.375547567418344,50.27855629049414],[5.38661042189702,50.3166655314435],[5.392913271530098,50.379497197824605],[5.346299251697726,50.38654846698987],[5.2210040144826,50.41720859285282],[5.237163283572562,50.4270547795948],[5.196983583856412,50.47908263010714],[5.164030893934266,50.467687043420995],[5.144522994303049,50.508635184913224],[5.142291862868518,50.51220980052635],[5.034691005973004,50.53186618794709],[5.051047480787682,50.555263126716916],[5.028627896632718,50.58861421041838],[4.9793806003585495,50.618546618113996],[4.983514187019754,50.64225343687266],[4.941099489090156,50.64342298392729],[4.852499983787864,50.615355853841876],[4.788199317193712,50.602084993416845],[4.790596720121631,50.571940667793385],[4.895811774425972,50.52665820490895],[4.919066582826792,50.52607243176877],[4.972246393258532,50.5103825082051],[4.966539027578516,50.45156328787296],[4.975247013697347,50.418534079514735],[4.919333390571996,50.387730009398915],[4.895494698554861,50.3641131557983],[4.916143297966297,50.34242355580567],[5.022746525901482,50.332845265312095],[5.033867382063896,50.34037434942789],[5.213773137909682,50.290541648771935]]]},"properties":{"postcode2":"53"}},
{"type":"Feature","geometry":{"type":"Polygon","coordinates":[[[4.73293531292625,50.47200537100732],[4.724366530848394,50.496711802633186],[4.643291777316637,50.512597650318824],[4.6275733210231,50.56436360225996],[4.575275136184208,50.56091293864237],[4.577479200166328,50.54240010834171],[4.592068557016393,50.484236634050454],[4.625643798344016,50.49270735348716],[4.670134956551504,50.4209371488475],[4.695296086957912,50.4279844195613],[4.799238970998889,50.39299397075762],[4.740951145619116,50.37967512891497],[4.756615467007829,50.34355311834561],[4.861915590448323,50.35097624349748],[4.895494698554861,50.3641131557983],[4.919333390571996,50.387730009398915],[4.828696092780973,50.411150938877554],[4.73293531292625,50.47200537100732]]]},"properties":{"postcode2":"51"}},
{"type":"Feature","geometry":{"type":"MultiPolygon","coordinates":[[[[4.584261530384991,50.36394921928808],[4.740951145619116,50.37967512891497],[4.799238970998889,50.39299397075762],[4.695296086957912,50.4279844195613],[4.670134956551504,50.4209371488475],[4.625643798344016,50.49270735348716],[4.592068557016393,50.484236634050454],[4.572831331909297,50.442036977248485],[4.57814428613988,50.43846835931256],[4.608053821055135,50.40874786954479],[4.5938124743075095,50.37436918381584],[4.584261530384991,50.36394921928808]]],[[[4.972246393258532,50.5103825082051],[4.919066582826792,50.52607243176877],[4.895811774425972,50.52665820490895],[4.790596720121631,50.571940667793385],[4.788199317193712,50.602084993416845],[4.734412422472161,50.6105757051109],[4.65681003640697,50.60154520246856],[4.6275733210231,50.56436360225996],[4.643291777316637,50.512597650318824],[4.724366530848394,50.496711802633186],[4.73293531292625,50.47200537100732],[4.828696092780973,50.411150938877554],[4.919333390571996,50.387730009398915],[4.975247013697347,50.418534079514735],[4.966539027578516,50.45156328787296],[4.972246393258532,50.5103825082051]]]]},"properties":{"postcode2":"50"}},
{"type":"Feature","geometry":{"type":"Polygon","coordinates":[[[4.588615523444407,50.32122776456943],[4.517973339428014,50.31517610827136],[4.475110095144162,50.32756531014751],[4.369539297179548,50.291793164081675],[4.308854068871855,50.26734063412408],[4.344896315147885,50.22748606910858],[4.393780134203948,50.23317786477445],[4.400504462738871,50.12283459881504],[4.386506723062953,50.106938755000726],[4.432741798561557,49.9417627248236],[4.509222818741108,49.94714464050063],[4.600204259855657,49.986381444764206],[4.684728180180485,49.99685338916106],[4.719455721625075,50.101872716989725],[4.796222883444409,50.14835471531481],[4.781181113461173,50.20109029173713],[4.7707021425988145,50.215602671343234],[4.7530116290581175,50.2752255804206],[4.7576208295259885,50.28232882945497],[4.756615467007829,50.34355311834561],[4.740951145619116,50.37967512891497],[4.584261530384991,50.36394921928808],[4.588615523444407,50.32122776456943]]]},"properties":{"postcode2":"56"}}
]}